{
"type": "FeatureCollection",
"name": "Clase IV, limitaciones por suelo",
"crs": { "type": "name", "properties": { "name": "urn:ogc:def:crs:OGC:1.3:CRS84" } },
"features": [
{ "type": "Feature", "properties": { "OBJECTID": 280, "UCS_CP": "IVs1", "CLASE": "IV", "SUBCLASE": "s", "GRUPO_MANEJO": "1", "UCS": "MPCd", "PRINCIPALES_CARACTERÍSTICAS": "Clima medio muy húmedo, con pendientes de 12–25% y erosión hídrica ligera", "PRINCIPALES_LIMITANTES": "Susceptibilidad a la erosión, deﬁciente espesor de suelos, niveles tóxicos de aluminio", "USO_ACTUAL": "Caña, ganadería extensiva", "USOS_RECOMENDADOS": "Cultivos comerciales de caña panelera, café, frutales, cultivos de subsistencia, pastos", "PRACTICAS_MANEJO": "Uso de correctivos (cal) y fertilizantes, suministrar fósforo por medio de roca fosfórica o escorias Thomas. Sembrar en el sistema de fajas. En ganadería evitar sobrepastoreo, utilizar baja carga", "ÁREA_HA_1": 1025.2686803571166, "Shape_Length": 26233.04423768472, "Shape_Area": 10252686.803571166 }, "geometry": { "type": "MultiPolygon", "coordinates": [ [ [ [ -73.324759180115137, 5.741161072299317 ], [ -73.324793375873412, 5.741237942489731 ], [ -73.324868784600355, 5.741374883198676 ], [ -73.32491730130829, 5.741467857653498 ], [ -73.324995441574643, 5.741563559190488 ], [ -73.325046974243236, 5.741661252335952 ], [ -73.325054284135149, 5.741703398006659 ], [ -73.32504834070437, 5.741818101402184 ], [ -73.324987201997644, 5.741980767969344 ], [ -73.324957875526422, 5.742044730200612 ], [ -73.32495994305846, 5.742128137264367 ], [ -73.324968558407306, 5.742240210632575 ], [ -73.324973890587842, 5.74232558690421 ], [ -73.325010356736755, 5.742417922030826 ], [ -73.325047813098323, 5.742491015637153 ], [ -73.325085526223489, 5.742572349011755 ], [ -73.325103152380507, 5.742647622240753 ], [ -73.325094961170024, 5.742778581404021 ], [ -73.325113586845049, 5.742847850371751 ], [ -73.325167584209055, 5.742881327751967 ], [ -73.325258201906124, 5.742871008204279 ], [ -73.325359640064562, 5.742897057577933 ], [ -73.325416154476642, 5.742939753520199 ], [ -73.325433034914397, 5.743025524116995 ], [ -73.325428057528555, 5.743086266134807 ], [ -73.325410563671184, 5.743198077423759 ], [ -73.325428959181437, 5.743296323323444 ], [ -73.325433441116488, 5.743303481942917 ], [ -73.325469888044935, 5.743361698987907 ], [ -73.325487266853415, 5.743389458653009 ], [ -73.325578173376186, 5.7434325892944 ], [ -73.325705772911874, 5.743532834532444 ], [ -73.325803747033476, 5.743630352702573 ], [ -73.325841468541583, 5.743722926866101 ], [ -73.325880716507598, 5.743843212700799 ], [ -73.325897086210531, 5.74391724768165 ], [ -73.325929522538601, 5.743989887057985 ], [ -73.325923787496563, 5.74404489097832 ], [ -73.325901732999526, 5.744096797380408 ], [ -73.325817940991186, 5.744174994494326 ], [ -73.32577454927106, 5.744229343853706 ], [ -73.325727698007583, 5.744360157624507 ], [ -73.325694850373694, 5.74441440956532 ], [ -73.325746889774038, 5.744519092456003 ], [ -73.325818984659065, 5.744585375218184 ], [ -73.325896106503961, 5.744659104965137 ], [ -73.325991058327133, 5.744741914229656 ], [ -73.326071922830053, 5.744782638711539 ], [ -73.326183163266194, 5.744825334102692 ], [ -73.326312469835841, 5.744853876907853 ], [ -73.326372514159601, 5.744918021652798 ], [ -73.326400937100132, 5.744996942092158 ], [ -73.326442924297467, 5.745086229563159 ], [ -73.326513532613973, 5.745178752298616 ], [ -73.32658464388247, 5.745272270223095 ], [ -73.326653255197414, 5.745381796993288 ], [ -73.326748489240927, 5.74550756573362 ], [ -73.326859515869643, 5.745601217354326 ], [ -73.326939656937199, 5.74568491094252 ], [ -73.326983398160195, 5.745769686900672 ], [ -73.327014096816328, 5.745870067786096 ], [ -73.327067867439254, 5.745937767208537 ], [ -73.327123645470152, 5.746003449162659 ], [ -73.327158094610752, 5.746083063847832 ], [ -73.327178495319401, 5.746176295783167 ], [ -73.327187854620462, 5.746275373022267 ], [ -73.327184931581598, 5.746401788833814 ], [ -73.327178291084678, 5.746595679050048 ], [ -73.327178911331487, 5.746761028124296 ], [ -73.327206160638951, 5.746953610225176 ], [ -73.327230582751696, 5.74705429785512 ], [ -73.32726326686884, 5.747121939643459 ], [ -73.327346159313251, 5.747191121003526 ], [ -73.327482759454966, 5.747238080355799 ], [ -73.327587489139745, 5.747302066293149 ], [ -73.327691499243556, 5.747412768093186 ], [ -73.327768375725313, 5.747493993699858 ], [ -73.32782517485937, 5.7475831458412 ], [ -73.327841798411754, 5.747661175206932 ], [ -73.327844601352751, 5.747718349821267 ], [ -73.327831341051592, 5.747781415170872 ], [ -73.327803270931938, 5.747847613942803 ], [ -73.327769191983649, 5.747935348536128 ], [ -73.327770222942149, 5.747973305846994 ], [ -73.327793873520847, 5.74804702434332 ], [ -73.327852957398449, 5.748171875123037 ], [ -73.327921331719622, 5.748300386665867 ], [ -73.327986165380651, 5.748391463603435 ], [ -73.328081410773478, 5.748532468430666 ], [ -73.328150322538093, 5.748645979326276 ], [ -73.328097691194216, 5.748681744948978 ], [ -73.327784139599174, 5.748839565724522 ], [ -73.327444856863636, 5.74893080123107 ], [ -73.327083623558465, 5.748963507263484 ], [ -73.326712044870149, 5.748969524562145 ], [ -73.326341723100526, 5.748980517429501 ], [ -73.325984082526006, 5.749028236277776 ], [ -73.325646310129002, 5.749137106280148 ], [ -73.325315614365508, 5.749287848565773 ], [ -73.324994897601727, 5.749469799834728 ], [ -73.324689495698706, 5.749675912644881 ], [ -73.324405104954877, 5.749898962885668 ], [ -73.324174186009415, 5.750168015758685 ], [ -73.324033687519972, 5.75053149798588 ], [ -73.323851476052837, 5.750830907166174 ], [ -73.323544909810565, 5.750961246333055 ], [ -73.323181582444192, 5.751007057202857 ], [ -73.322802205171158, 5.751037926516744 ], [ -73.322446138562512, 5.751122356807871 ], [ -73.322116806076068, 5.751265232223698 ], [ -73.321789802931391, 5.751421312637617 ], [ -73.321466664364365, 5.751589243327525 ], [ -73.321148659021006, 5.751767578320655 ], [ -73.320837050233962, 5.751955054457341 ], [ -73.320533284606967, 5.752150136075752 ], [ -73.320243403788652, 5.752358708557361 ], [ -73.320041563475769, 5.752686390443665 ], [ -73.319817691595787, 5.752948851246861 ], [ -73.319481951526768, 5.753021009408822 ], [ -73.319104256995288, 5.753008476687196 ], [ -73.318736193348002, 5.752948939572091 ], [ -73.318397484912566, 5.75281140931803 ], [ -73.318067229295096, 5.752630035595172 ], [ -73.317734067271431, 5.752530217232082 ], [ -73.317369960971533, 5.7525495304693 ], [ -73.316990782006613, 5.752634557638486 ], [ -73.316659976579416, 5.752797772267676 ], [ -73.316425291336415, 5.753044032195382 ], [ -73.316233159930007, 5.753332664456717 ], [ -73.316064282396326, 5.753648363755568 ], [ -73.315910998284863, 5.75398252972048 ], [ -73.315765374972784, 5.75432620012574 ], [ -73.315619839437787, 5.754670412538845 ], [ -73.315466461947565, 5.755006568523033 ], [ -73.315305870954646, 5.75533556999897 ], [ -73.315156181003317, 5.75568086154353 ], [ -73.31497313780568, 5.755990845242164 ], [ -73.314712198661425, 5.756223505301823 ], [ -73.314395946919376, 5.756436559301322 ], [ -73.314051491169465, 5.756610966645929 ], [ -73.31370144756265, 5.756711040187129 ], [ -73.31336599074254, 5.756705614585027 ], [ -73.313031989639668, 5.756624417799724 ], [ -73.312695980469613, 5.756492765167577 ], [ -73.312361463630936, 5.756325487529824 ], [ -73.312032301710929, 5.756137241782145 ], [ -73.311711905527872, 5.755942766527391 ], [ -73.311404504894583, 5.755750931982681 ], [ -73.311112305374223, 5.755533528460263 ], [ -73.310830335719487, 5.755295613959269 ], [ -73.310552889334147, 5.755050834310043 ], [ -73.310273989343528, 5.754812652672091 ], [ -73.309987930920087, 5.754594713949541 ], [ -73.309688736248134, 5.754410484901669 ], [ -73.309367172625358, 5.754279573487507 ], [ -73.309012646123207, 5.754224116922861 ], [ -73.308640262554491, 5.754223249695274 ], [ -73.308267114478753, 5.754252400226738 ], [ -73.307907047737018, 5.754289705555067 ], [ -73.307550126566582, 5.754336147545164 ], [ -73.307193462559724, 5.754392173918765 ], [ -73.30683733040847, 5.754456159168543 ], [ -73.306482002192482, 5.754526653357019 ], [ -73.306127478838377, 5.754602032029719 ], [ -73.305774124548748, 5.754680758321242 ], [ -73.305422031562202, 5.754761293702529 ], [ -73.305071554910555, 5.75484861271355 ], [ -73.30472376779953, 5.754949136590347 ], [ -73.304379935931621, 5.755062595881677 ], [ -73.304041592412659, 5.755188629592598 ], [ -73.303713046995725, 5.755345690892349 ], [ -73.303395819591643, 5.755544360130033 ], [ -73.30307942639989, 5.755726846638158 ], [ -73.302752665780446, 5.755832642418058 ], [ -73.302384742417104, 5.755803926785656 ], [ -73.302023994064882, 5.755677478177711 ], [ -73.301867339709361, 5.755432407522492 ], [ -73.301728202231416, 5.755119908526388 ], [ -73.30145247851749, 5.754872413789328 ], [ -73.300938895662455, 5.754614375497815 ], [ -73.300607778053475, 5.754473680241976 ], [ -73.300255125011915, 5.754369936902608 ], [ -73.299889229298088, 5.754311926726802 ], [ -73.299546013197457, 5.754370679788757 ], [ -73.299216148151487, 5.754502690922105 ], [ -73.298892190291369, 5.75467096715763 ], [ -73.298574614659373, 5.754859597628937 ], [ -73.298263984644251, 5.755052215307755 ], [ -73.297964806879193, 5.755253528324713 ], [ -73.297676347013194, 5.755472669336098 ], [ -73.297390500291527, 5.755695882209352 ], [ -73.297098708298734, 5.75590923093836 ], [ -73.29679322534605, 5.756099594472151 ], [ -73.296475763418997, 5.756269959270633 ], [ -73.296151095635736, 5.75642837634227 ], [ -73.295822555254219, 5.756580189722494 ], [ -73.295493204408729, 5.756730644046104 ], [ -73.295166285174588, 5.756885260789159 ], [ -73.295267335121437, 5.756534483124449 ], [ -73.295360718577712, 5.756178903010687 ], [ -73.295467360376236, 5.755831659120632 ], [ -73.29560809690085, 5.755506163466233 ], [ -73.295836411809915, 5.755237481098256 ], [ -73.296131111038719, 5.755010845332554 ], [ -73.29637106917086, 5.754743264432681 ], [ -73.296564412310659, 5.754433935134971 ], [ -73.296728712191481, 5.754106392571223 ], [ -73.296854113947361, 5.753771199507301 ], [ -73.296880341338763, 5.753407478434297 ], [ -73.296809058057775, 5.753055467976521 ], [ -73.296562620913562, 5.752782965063931 ], [ -73.296309767419856, 5.752516422007906 ], [ -73.296039455445253, 5.75227517240628 ], [ -73.295734395735181, 5.752094273661114 ], [ -73.295398929764957, 5.751966771337933 ], [ -73.295048443844777, 5.751864564721333 ], [ -73.294697417395952, 5.751761724668541 ], [ -73.294360060591771, 5.751632229898826 ], [ -73.29404469574861, 5.751461534759418 ], [ -73.293738926989022, 5.751272044178531 ], [ -73.293439404491949, 5.751069994372263 ], [ -73.293143954951546, 5.750860083366804 ], [ -73.292850135754321, 5.75064692063328 ], [ -73.292281330966745, 5.750244579052 ], [ -73.29243870258621, 5.749705537591691 ], [ -73.292539927608459, 5.749358377459917 ], [ -73.292640521755956, 5.749011035732344 ], [ -73.292736513289015, 5.748662148814147 ], [ -73.29283024902594, 5.748312356237385 ], [ -73.292926962411372, 5.747963743132516 ], [ -73.293032248154745, 5.74761812565951 ], [ -73.293153774079315, 5.747278137022341 ], [ -73.293298399235113, 5.746946226215425 ], [ -73.293449971898724, 5.746616858451795 ], [ -73.29359017595074, 5.746283585125265 ], [ -73.293704934250087, 5.745940874031479 ], [ -73.293818164848972, 5.745593459561293 ], [ -73.293934468740773, 5.745243516756425 ], [ -73.294051044531912, 5.744891946617584 ], [ -73.29416536451302, 5.744539469008338 ], [ -73.294274719511051, 5.744187074479652 ], [ -73.294376491431848, 5.743835393350857 ], [ -73.294468059570022, 5.743485236037175 ], [ -73.29454662351641, 5.743137591330457 ], [ -73.294609657357512, 5.742793090410185 ], [ -73.294654179088781, 5.742452723066998 ], [ -73.294519371175042, 5.742146739131529 ], [ -73.294241720374899, 5.741863433542419 ], [ -73.294034158244528, 5.741553912188923 ], [ -73.29385569445958, 5.741221645137144 ], [ -73.293779701337812, 5.740882196768917 ], [ -73.293867914537287, 5.740542341850412 ], [ -73.294024287775983, 5.740199236450025 ], [ -73.294122533976562, 5.739849810585485 ], [ -73.29411724719084, 5.739493188974865 ], [ -73.294073149299763, 5.739132355575671 ], [ -73.294012985121796, 5.738769871574934 ], [ -73.293959229173765, 5.738408120024389 ], [ -73.293934806863177, 5.73804966294324 ], [ -73.29396258732352, 5.73767373805138 ], [ -73.294078907515384, 5.737309057420297 ], [ -73.294322766233364, 5.737088589368367 ], [ -73.294650560666256, 5.736945546136848 ], [ -73.295018552765185, 5.736848852832192 ], [ -73.295392171770004, 5.736795929896096 ], [ -73.295742321051634, 5.736808166425239 ], [ -73.296083159809669, 5.736960992450282 ], [ -73.296425660045756, 5.73708705682407 ], [ -73.296782699494045, 5.737077873435741 ], [ -73.29715226361661, 5.737020061789639 ], [ -73.297505468801887, 5.736910416021419 ], [ -73.297812987777831, 5.736740397456388 ], [ -73.298064029979855, 5.7364807869265 ], [ -73.298285891761452, 5.73617031926516 ], [ -73.298510536970028, 5.735871881925858 ], [ -73.298769833518733, 5.73564799764979 ], [ -73.299100417125175, 5.735576567842621 ], [ -73.299479867344161, 5.735616148292654 ], [ -73.29985345308026, 5.735652647352893 ], [ -73.3002436063895, 5.735721539756701 ], [ -73.300627175818079, 5.735785176448029 ], [ -73.300946885150424, 5.735744292912064 ], [ -73.301168709677896, 5.735526594811072 ], [ -73.301321016553871, 5.735182937745962 ], [ -73.301428336200317, 5.73479590732896 ], [ -73.301500049904092, 5.734436136764685 ], [ -73.301476359050483, 5.734068096859784 ], [ -73.301480368991648, 5.733708593617562 ], [ -73.301615491288757, 5.733321782918956 ], [ -73.301870357118361, 5.733167965846608 ], [ -73.302204519804675, 5.733251788987323 ], [ -73.302561949325536, 5.733418740197002 ], [ -73.302888938336977, 5.733600205221183 ], [ -73.303152277891783, 5.73385373917195 ], [ -73.303452701508078, 5.734054337644597 ], [ -73.303779582288186, 5.734248643086776 ], [ -73.304113975762561, 5.734428853640545 ], [ -73.304450521093443, 5.734553548028189 ], [ -73.304783497599047, 5.734581037304841 ], [ -73.305112023052232, 5.73449558508232 ], [ -73.305439297020953, 5.734335354009304 ], [ -73.305768414394976, 5.734145378368408 ], [ -73.306102296684031, 5.733970688903589 ], [ -73.306444149483411, 5.733843300628462 ], [ -73.30679548757611, 5.733709865360735 ], [ -73.307153612011248, 5.733565046900521 ], [ -73.307515079606077, 5.733417520509604 ], [ -73.307876810220861, 5.733275600171003 ], [ -73.308235361529086, 5.733147781067303 ], [ -73.308587474737152, 5.733042737477628 ], [ -73.308930065308132, 5.732968876621845 ], [ -73.309259604292436, 5.732934782438809 ], [ -73.309573008945748, 5.732948768945601 ], [ -73.309862280748547, 5.73305305193213 ], [ -73.310122780973231, 5.73327231120092 ], [ -73.310358890095017, 5.733571647098058 ], [ -73.310575170026212, 5.733915987011928 ], [ -73.310775908851951, 5.73427025123454 ], [ -73.310965579832015, 5.734599363573695 ], [ -73.311148050854882, 5.734911648750895 ], [ -73.311321931875867, 5.735234681659568 ], [ -73.311483885691729, 5.735565836938694 ], [ -73.31163039628774, 5.735902666706566 ], [ -73.311758306384505, 5.736242817913157 ], [ -73.311864008591286, 5.736583661733798 ], [ -73.31192719180028, 5.736925172150173 ], [ -73.311862440322628, 5.737279349745938 ], [ -73.311754711279377, 5.737640430482888 ], [ -73.311706743937478, 5.738000598091788 ], [ -73.31169722790726, 5.738362987311244 ], [ -73.311710372969713, 5.738725226620967 ], [ -73.311733246751942, 5.739101674387642 ], [ -73.311781755414984, 5.739480056616604 ], [ -73.311958077039009, 5.739735188310887 ], [ -73.312341840110562, 5.73979275972972 ], [ -73.312699038170564, 5.739734740261373 ], [ -73.313038921431087, 5.739596223104815 ], [ -73.313362336787264, 5.739419346849924 ], [ -73.313671119945099, 5.739180601613316 ], [ -73.313980058966095, 5.739027394816894 ], [ -73.314344342440378, 5.739071286732815 ], [ -73.314748906462953, 5.739235038360038 ], [ -73.315009314609142, 5.739459087073846 ], [ -73.314997317328618, 5.739721830134086 ], [ -73.314809834138799, 5.740048084211337 ], [ -73.314529739019846, 5.740368065111908 ], [ -73.314234585622486, 5.740607461255578 ], [ -73.313916099204349, 5.740744108541778 ], [ -73.31355850962413, 5.740823919341273 ], [ -73.313189564372621, 5.740890333250515 ], [ -73.312836197042159, 5.740985611182952 ], [ -73.312488860008699, 5.741094731039422 ], [ -73.312138634432245, 5.741202491164393 ], [ -73.311791199427873, 5.741316403487717 ], [ -73.311452413801618, 5.741443799762805 ], [ -73.31112786172622, 5.741592100595617 ], [ -73.310820869710767, 5.741772525167158 ], [ -73.310528512433947, 5.742012375008028 ], [ -73.310280870979511, 5.742296771176013 ], [ -73.310113542535944, 5.742602435283915 ], [ -73.310058349649225, 5.742963224797422 ], [ -73.310110270872244, 5.743354360229409 ], [ -73.310251942278015, 5.743665324603221 ], [ -73.310568247966529, 5.743808254276017 ], [ -73.310949620006724, 5.743900364890905 ], [ -73.311365927999802, 5.743859425496161 ], [ -73.311725355439691, 5.743823833638307 ], [ -73.31208415617256, 5.743783992069335 ], [ -73.312447278119947, 5.74375355799378 ], [ -73.312809144471558, 5.743717155067852 ], [ -73.313157527765597, 5.743636698998804 ], [ -73.313485778196124, 5.743491114454359 ], [ -73.313802703788369, 5.74330780785439 ], [ -73.314118460131169, 5.743121425672967 ], [ -73.314443291518728, 5.742966794402872 ], [ -73.314785285334651, 5.742871680068173 ], [ -73.315138692101172, 5.74281555341138 ], [ -73.315498925508777, 5.742783486430206 ], [ -73.315862933987972, 5.742764896949329 ], [ -73.316227570119764, 5.742749110546532 ], [ -73.316589599672142, 5.742725365073147 ], [ -73.316957837925301, 5.74271582154048 ], [ -73.317332102692731, 5.742722653819423 ], [ -73.317696378952419, 5.742706595186463 ], [ -73.318034918984509, 5.742628292840946 ], [ -73.318332514154065, 5.742452825450215 ], [ -73.318597622260015, 5.74220136148678 ], [ -73.318853103761469, 5.741925108802724 ], [ -73.319121819269085, 5.741675457108283 ], [ -73.31943097041983, 5.741499732958881 ], [ -73.319791734852927, 5.741407805271146 ], [ -73.320152572584263, 5.741397256616103 ], [ -73.320490686427931, 5.74150268571383 ], [ -73.320825750311627, 5.741661820148757 ], [ -73.321169724552419, 5.741773495391089 ], [ -73.321519050640148, 5.741866099300908 ], [ -73.321865535237293, 5.741990888696065 ], [ -73.322211026848933, 5.742115405125442 ], [ -73.322559054179081, 5.742099050313424 ], [ -73.322917251295138, 5.742037318858548 ], [ -73.323277554892371, 5.741952350416035 ], [ -73.323629860839958, 5.741840970574442 ], [ -73.323964059636552, 5.741700089113763 ], [ -73.324271038923087, 5.741525986303527 ], [ -73.324555686001688, 5.741310983304011 ], [ -73.324740041435447, 5.741138458432592 ], [ -73.324759180115137, 5.741161072299317 ] ] ] ] } }
]
}
