{
"type": "FeatureCollection",
"name": "Clase VI, limitaciones por suelo",
"crs": { "type": "name", "properties": { "name": "urn:ogc:def:crs:OGC:1.3:CRS84" } },
"features": [
{ "type": "Feature", "properties": { "OBJECTID": 839, "UCS_CP": "VIs1", "CLASE": "VI", "SUBCLASE": "s", "GRUPO_MANEJO": "1", "UCS": "MKCd, MKCe", "PRINCIPALES_CARACTERÍSTICAS": "Clima frío muy húmedo, que se presentan en relieves de lomas con pendientes entre 12 y 50%", "PRINCIPALES_LIMITANTES": "Susceptibilidad a erosión, niveles tóxicos de aluminio, pendiente, heladas ocasionales", "USO_ACTUAL": "Cultivos de papa, maíz, cebada; ganadería", "USOS_RECOMENDADOS": "Cultivos de papa, maíz; ganadería extensiva", "PRACTICAS_MANEJO": "Encalar, fertilizar; para la fertilización fosfórica utilizar roca fosfórica o escorias Thomas. Sembrar en curvas de nivel. Para el maíz-arveja sembrar en fajas en contorno. En ganadería evitar el sobrepastoreo", "ÁREA_HA_1": 352.18538327647889, "Shape_Length": 11634.49715221706, "Shape_Area": 3521853.832764789 }, "geometry": { "type": "MultiPolygon", "coordinates": [ [ [ [ -73.306639678990436, 5.800169276958836 ], [ -73.306281487297554, 5.800067786421745 ], [ -73.305923633145781, 5.800114584089652 ], [ -73.305654752232314, 5.800326699248825 ], [ -73.305414391181543, 5.800611190705252 ], [ -73.305159648398202, 5.800915101816832 ], [ -73.304998497792312, 5.800583402855156 ], [ -73.304825792184943, 5.800250510947 ], [ -73.304666448406991, 5.799918995507757 ], [ -73.304545558431144, 5.799591239461485 ], [ -73.304613958787982, 5.79928671125741 ], [ -73.304809221947906, 5.798969969823716 ], [ -73.304900117310268, 5.798589157984098 ], [ -73.304929340725693, 5.798214771274989 ], [ -73.304814022999778, 5.797906101170587 ], [ -73.304600688322282, 5.797640607351999 ], [ -73.304339481903341, 5.797393041643885 ], [ -73.304047379540449, 5.797159267214264 ], [ -73.303741630802989, 5.796935148923037 ], [ -73.303439035144976, 5.79671636819447 ], [ -73.303147629042428, 5.796502486339079 ], [ -73.302847176144596, 5.796302065429922 ], [ -73.302538763844623, 5.796112391717461 ], [ -73.30222582674007, 5.795930036165815 ], [ -73.301911622130248, 5.795751205130401 ], [ -73.301596248183458, 5.795568484891285 ], [ -73.301276625436984, 5.795390459090001 ], [ -73.300950380930374, 5.795235752740111 ], [ -73.300610895169186, 5.795123887233866 ], [ -73.300219569121637, 5.795091790252451 ], [ -73.299896269294521, 5.795158524292611 ], [ -73.299926269263437, 5.79553199723133 ], [ -73.300068369731648, 5.795861500745935 ], [ -73.30023024814804, 5.79618669141482 ], [ -73.300389323803984, 5.796513688057826 ], [ -73.300536025018815, 5.796846453271168 ], [ -73.300694189421989, 5.797180499241715 ], [ -73.300843774496883, 5.79751679498856 ], [ -73.300960310303026, 5.797856932728866 ], [ -73.301020321491364, 5.798203773868972 ], [ -73.301035055091162, 5.798584278393889 ], [ -73.301006074471985, 5.798976657882196 ], [ -73.300921704832831, 5.799338308965702 ], [ -73.300770083563009, 5.799626898948133 ], [ -73.300487201251997, 5.799777869111669 ], [ -73.300102063001006, 5.799838731162828 ], [ -73.299719245561732, 5.799919216403599 ], [ -73.299405367200436, 5.800091302264719 ], [ -73.299113640982256, 5.800304829257102 ], [ -73.298827674546814, 5.800531023813255 ], [ -73.298533601512389, 5.800743463063679 ], [ -73.298224304939325, 5.800931737946208 ], [ -73.297909234027742, 5.801116569511506 ], [ -73.297588042326396, 5.801288643788848 ], [ -73.297259929837736, 5.801437017159278 ], [ -73.296921211277962, 5.80155237377906 ], [ -73.296553289567512, 5.801631792113453 ], [ -73.296184657376202, 5.801638241341768 ], [ -73.295849850267487, 5.801536959073603 ], [ -73.295530368032814, 5.801387592877889 ], [ -73.295216333550613, 5.801214997112178 ], [ -73.294906205997663, 5.801025769955217 ], [ -73.294598349750373, 5.800826689725221 ], [ -73.294291309802617, 5.800624355455877 ], [ -73.293697231076322, 5.800250818485171 ], [ -73.294061425396109, 5.800447898005827 ], [ -73.29442048990694, 5.800634120079121 ], [ -73.294681802325869, 5.800608534002269 ], [ -73.294870856115253, 5.800346672939612 ], [ -73.295011502162893, 5.799966836450583 ], [ -73.295077251123416, 5.79955977075168 ], [ -73.295048042435567, 5.799204653841003 ], [ -73.294965915231856, 5.798858053288869 ], [ -73.29484750064816, 5.798507784686644 ], [ -73.294696306140949, 5.798163439065943 ], [ -73.294515837477348, 5.797834875335084 ], [ -73.294309693425632, 5.797531864571391 ], [ -73.294081476414263, 5.79726083120381 ], [ -73.293834007650943, 5.797006317434611 ], [ -73.293570361372261, 5.7967633550651 ], [ -73.29329352137475, 5.79653031988225 ], [ -73.293006648421382, 5.796305318804591 ], [ -73.292712635895739, 5.796086636272446 ], [ -73.29241464370044, 5.795872468810298 ], [ -73.292115564268485, 5.795661013087051 ], [ -73.291818561161492, 5.795450554326947 ], [ -73.29152064697, 5.795246242555016 ], [ -73.291187366923921, 5.795088447144934 ], [ -73.290848836489047, 5.794941856182731 ], [ -73.290549363149552, 5.794754991957358 ], [ -73.290301815818822, 5.794493605849671 ], [ -73.290086931630455, 5.794181177783031 ], [ -73.289938891358048, 5.793842441768986 ], [ -73.289883671147152, 5.793497325116856 ], [ -73.289870636933145, 5.793132916935353 ], [ -73.289889489672248, 5.792756980973435 ], [ -73.289944991595647, 5.792384261599506 ], [ -73.290041816509188, 5.792029772906814 ], [ -73.290184548442838, 5.791707900055769 ], [ -73.290366072350409, 5.791406244682804 ], [ -73.29057647554481, 5.791112224334367 ], [ -73.290811239454356, 5.790828366218775 ], [ -73.291065937827554, 5.790557465377052 ], [ -73.291336052980782, 5.790301956716213 ], [ -73.291617155892169, 5.790064457006936 ], [ -73.291904640494465, 5.789847671807221 ], [ -73.292204545453529, 5.789658390846123 ], [ -73.292524542034272, 5.789497710613229 ], [ -73.29285868551807, 5.789356942624922 ], [ -73.293201118918546, 5.789227577552985 ], [ -73.293545894785396, 5.789100928752187 ], [ -73.293887249176976, 5.788968487780023 ], [ -73.294219052990869, 5.788821567209946 ], [ -73.294535630812206, 5.788651657677176 ], [ -73.294831579592156, 5.788449259628973 ], [ -73.295109426426095, 5.78821564057864 ], [ -73.295375561326182, 5.787962565706298 ], [ -73.295636381685696, 5.787702068956666 ], [ -73.295898368848569, 5.787446004125485 ], [ -73.296167825395969, 5.787206495681501 ], [ -73.296451235450292, 5.786995488798315 ], [ -73.296769058746833, 5.786838148647206 ], [ -73.297137406010563, 5.786769940496207 ], [ -73.297508806941579, 5.786778774043591 ], [ -73.297851403671913, 5.786856195302891 ], [ -73.298186239646043, 5.786995995895513 ], [ -73.298512270829917, 5.787171408612685 ], [ -73.298826099962113, 5.787357021354565 ], [ -73.299103170311838, 5.787618807209776 ], [ -73.29937837754828, 5.787856267794786 ], [ -73.299702953353901, 5.787908888031199 ], [ -73.300055230683853, 5.787841290088183 ], [ -73.300419293580276, 5.787737810121007 ], [ -73.300782669132545, 5.78767447559561 ], [ -73.301149597298092, 5.787653372068036 ], [ -73.301526458913415, 5.787631015045308 ], [ -73.301899495473492, 5.787632344269674 ], [ -73.302254950391657, 5.787682383678868 ], [ -73.302579158305377, 5.787805981624547 ], [ -73.302879275045854, 5.787984702429364 ], [ -73.303168161179656, 5.788190623069912 ], [ -73.303448533197766, 5.788417418952733 ], [ -73.303723196180641, 5.788658855025588 ], [ -73.303994868405496, 5.788908605778905 ], [ -73.30426635940357, 5.789160343839487 ], [ -73.30454038296736, 5.789407836904497 ], [ -73.30481974866079, 5.789644848995033 ], [ -73.305107171063383, 5.789864962275575 ], [ -73.305405550985824, 5.790061945232843 ], [ -73.305721583514838, 5.790222963316976 ], [ -73.306058618340643, 5.790343140426353 ], [ -73.306409684283778, 5.790436211681409 ], [ -73.306767900549659, 5.790515911262982 ], [ -73.307126116244348, 5.790596061297174 ], [ -73.307477451441926, 5.790690216807927 ], [ -73.307821360954307, 5.790801089447163 ], [ -73.30816372922412, 5.790917294897982 ], [ -73.308505552926917, 5.791035488689361 ], [ -73.308847648010257, 5.791152326446723 ], [ -73.309191015554191, 5.791264282695422 ], [ -73.30953656084931, 5.791367832916134 ], [ -73.309885279768352, 5.791461533105529 ], [ -73.310238330356142, 5.791556322119046 ], [ -73.310594362203403, 5.791649759030861 ], [ -73.310951670360751, 5.791735511665566 ], [ -73.311308454129886, 5.791807339309398 ], [ -73.311662918167599, 5.791858909847318 ], [ -73.312013446881721, 5.791883799666923 ], [ -73.312353616538388, 5.791824495822278 ], [ -73.312681301721469, 5.79165142632326 ], [ -73.313017940360666, 5.791466614915638 ], [ -73.313244972875665, 5.79175129275697 ], [ -73.313482845627462, 5.792031736395552 ], [ -73.313721079104511, 5.792312090125571 ], [ -73.313949196443517, 5.792596407758965 ], [ -73.31415680927212, 5.792888654387029 ], [ -73.314333528448216, 5.793193065706991 ], [ -73.314436269283846, 5.793526311090714 ], [ -73.314454011065806, 5.793892897201755 ], [ -73.314461080740131, 5.794405495383227 ], [ -73.314644110978278, 5.794717329380486 ], [ -73.314827051113184, 5.795029254758205 ], [ -73.315005293184385, 5.795343703969708 ], [ -73.315171699420048, 5.795665281946381 ], [ -73.315277212078541, 5.796018694104259 ], [ -73.315425392043835, 5.796332290180811 ], [ -73.315741544174173, 5.796544662078947 ], [ -73.316080258143629, 5.796562572013119 ], [ -73.316426118186214, 5.79643663455503 ], [ -73.316767942543834, 5.796291250070028 ], [ -73.317099920834764, 5.796148837447166 ], [ -73.317426588892005, 5.795994299880562 ], [ -73.317745423859449, 5.795824471340136 ], [ -73.318058135110192, 5.795642155435318 ], [ -73.318366166159691, 5.795449796640797 ], [ -73.318690667785475, 5.795294170899878 ], [ -73.319047718322452, 5.795171139672427 ], [ -73.319393270295706, 5.795139778130904 ], [ -73.319702920385723, 5.795353135168991 ], [ -73.31979059049273, 5.795684279249975 ], [ -73.319777266596759, 5.796059684415387 ], [ -73.319836552705056, 5.796416560604635 ], [ -73.319939456805542, 5.796764905266071 ], [ -73.320064673407401, 5.797104329503128 ], [ -73.320283846010099, 5.797464766858274 ], [ -73.319813207709615, 5.797595964516886 ], [ -73.319464411868339, 5.797689529784218 ], [ -73.319110588861548, 5.797761749937883 ], [ -73.318751290615239, 5.79780954826294 ], [ -73.318410866456233, 5.797920936429522 ], [ -73.318085091923393, 5.79808144339161 ], [ -73.317742677904405, 5.798194819640703 ], [ -73.317383174520643, 5.798261152273999 ], [ -73.3170530137985, 5.798393351317924 ], [ -73.316742639147009, 5.798581907138963 ], [ -73.316450098690041, 5.798800869451463 ], [ -73.316186595317944, 5.799045187629171 ], [ -73.315967996448947, 5.799330978823508 ], [ -73.315768509868576, 5.799636507913361 ], [ -73.31555306203586, 5.799928180529355 ], [ -73.315324625690678, 5.800210612243053 ], [ -73.315063193882096, 5.800457826562218 ], [ -73.314781297623725, 5.800682226563358 ], [ -73.314492099259411, 5.800898929954945 ], [ -73.314199024455576, 5.801111288706943 ], [ -73.313905047166756, 5.801322832424311 ], [ -73.313613594862844, 5.801536911279445 ], [ -73.313309337879261, 5.801739217768393 ], [ -73.313029245299774, 5.80196452366171 ], [ -73.312804873535043, 5.802244338597455 ], [ -73.312593663432111, 5.80253845584302 ], [ -73.312394446233313, 5.802842897733189 ], [ -73.312207136974862, 5.803154318588355 ], [ -73.31203182896013, 5.803469825123268 ], [ -73.311874474891354, 5.803795301914578 ], [ -73.3117339899473, 5.804129842776142 ], [ -73.311606860434466, 5.804469375401252 ], [ -73.311493539904546, 5.804812091383076 ], [ -73.311403953474908, 5.805162344588491 ], [ -73.311322127016908, 5.805515411640531 ], [ -73.311229200290853, 5.80586511823754 ], [ -73.311123368386234, 5.806210828257017 ], [ -73.311012572845641, 5.806555083959679 ], [ -73.310901416583647, 5.80689924934319 ], [ -73.310794862317451, 5.807244958801638 ], [ -73.310701571565644, 5.807595929790364 ], [ -73.310602326963135, 5.807944089525864 ], [ -73.310468883610724, 5.808277646148289 ], [ -73.310280127982423, 5.808588069050271 ], [ -73.310094441133018, 5.808898948136868 ], [ -73.310003050237839, 5.809246937861418 ], [ -73.309904170420097, 5.809590848376233 ], [ -73.309707297649169, 5.80989466010523 ], [ -73.309515024433381, 5.810202274726367 ], [ -73.309183083445078, 5.810837559399381 ], [ -73.30897294274385, 5.810543045732408 ], [ -73.308764701063282, 5.810247359881399 ], [ -73.308569383424668, 5.809941836003863 ], [ -73.308443896478181, 5.809605665451745 ], [ -73.308415957825346, 5.809239969816593 ], [ -73.308369499003518, 5.808882027350621 ], [ -73.308220790561847, 5.808560110269155 ], [ -73.308010387496452, 5.808260804383854 ], [ -73.307792210282031, 5.807968992315461 ], [ -73.307558305403475, 5.807690089302869 ], [ -73.307326749044663, 5.807410736933237 ], [ -73.307134768609629, 5.807108743695601 ], [ -73.306983089721271, 5.806780855806908 ], [ -73.306858877799272, 5.806438176320641 ], [ -73.306758148132445, 5.806089651411883 ], [ -73.306686765708605, 5.80573619376227 ], [ -73.30664130561, 5.805375900243109 ], [ -73.306597830895782, 5.805015700660254 ], [ -73.306492926449394, 5.804682993495184 ], [ -73.306692942272804, 5.804391123349444 ], [ -73.306921938366301, 5.804099925209205 ], [ -73.307114031490016, 5.803790954959686 ], [ -73.307245490949356, 5.803456221811237 ], [ -73.307360534013071, 5.803109530900882 ], [ -73.307457802495918, 5.802755762669189 ], [ -73.307534758848021, 5.802399525795545 ], [ -73.307588961311239, 5.802045427096309 ], [ -73.307568407999085, 5.801692672205438 ], [ -73.307448722907964, 5.801341048102613 ], [ -73.307324602948214, 5.800997645470171 ], [ -73.30715874152888, 5.800676157107862 ], [ -73.306924126478236, 5.800390923582552 ], [ -73.306639678990436, 5.800169276958836 ] ] ] ] } }
]
}
