{
"type": "FeatureCollection",
"name": "Clase VI limitaciones por pendiente O relieve y suelo",
"crs": { "type": "name", "properties": { "name": "urn:ogc:def:crs:OGC:1.3:CRS84" } },
"features": [
{ "type": "Feature", "properties": { "OBJECTID": 651, "UCS_CP": "VIIps1", "CLASE": "VII", "SUBCLASE": "ps", "GRUPO_MANEJO": "1", "UCS": "MKEf, MKCf, MKVf, MKVfp, MKVf1, MLEf", "PRINCIPALES_CARACTERÍSTICAS": "Clima frío muy húmedo, relieve de vigas, fi las y crestones donde dominan las topografías fuertemente quebradas y escarpadas con pendientes mayores de 50%", "PRINCIPALES_LIMITANTES": "Pendientes fuertes, susceptibilidad a la erosión, niveles tóxicos de aluminio, baja fertilidad", "USO_ACTUAL": "Ganadería extensiva, cultivos de subsistencia, bosque", "USOS_RECOMENDADOS": "Bosque productivo-protector; ganadería controlada", "PRACTICAS_MANEJO": "Evitar aprovechamiento del bosque con tala rasa, debe hacerse selectivo; en ganadería utilizar baja carga y hacer rotación de potreros", "ÁREA_HA_1": 915.54838759042377, "Shape_Length": 20295.242370373489, "Shape_Area": 9155483.8759042379 }, "geometry": { "type": "MultiPolygon", "coordinates": [ [ [ [ -73.180032668034343, 5.831771529201761 ], [ -73.180008304638619, 5.831424743688104 ], [ -73.180156729030315, 5.831144962165776 ], [ -73.180373301713146, 5.830875326405361 ], [ -73.180633926100015, 5.830610100055101 ], [ -73.180914324122313, 5.830343912467773 ], [ -73.181190126417988, 5.830071206638646 ], [ -73.181437238409515, 5.829786518734687 ], [ -73.181631923330286, 5.829484116061654 ], [ -73.1817929717472, 5.82915697617888 ], [ -73.181935001986091, 5.828809461899785 ], [ -73.182051139053456, 5.828450332193781 ], [ -73.182134867703255, 5.828088529630209 ], [ -73.18217931398334, 5.827733082867657 ], [ -73.182176338152956, 5.827390942194281 ], [ -73.182088249149814, 5.827033927371833 ], [ -73.181918628893442, 5.826680488244343 ], [ -73.18169061208458, 5.826372074210622 ], [ -73.181427067431656, 5.826149589062294 ], [ -73.181108789593551, 5.825997269379921 ], [ -73.180739783394472, 5.825894869946348 ], [ -73.180353351167113, 5.825849584678488 ], [ -73.179983157543489, 5.825868520584852 ], [ -73.179654562274649, 5.825958229025758 ], [ -73.179343016172325, 5.826112793787984 ], [ -73.17904141623967, 5.826314843053741 ], [ -73.178747531977251, 5.82654664958964 ], [ -73.178459226904721, 5.826790492461791 ], [ -73.17817454163422, 5.827028462436176 ], [ -73.177892493706395, 5.827254231194174 ], [ -73.177614861711561, 5.827485521612052 ], [ -73.177341371835752, 5.827722334687392 ], [ -73.177071848509087, 5.827963855080367 ], [ -73.176806019499224, 5.828209359790502 ], [ -73.176543616160927, 5.828458034411103 ], [ -73.176287700528732, 5.828714043683392 ], [ -73.176057729434234, 5.829005988446414 ], [ -73.17583416036554, 5.829302916742038 ], [ -73.17558943505874, 5.829561656208904 ], [ -73.175296714565434, 5.829741835174178 ], [ -73.174954100871844, 5.829845170928522 ], [ -73.174585383546116, 5.829898824879105 ], [ -73.174215619891939, 5.829929693838311 ], [ -73.173848302711633, 5.829955591564591 ], [ -73.1734758131566, 5.829941246392058 ], [ -73.173144282099699, 5.829833837629495 ], [ -73.172851454688796, 5.829632279136153 ], [ -73.172582459692734, 5.829376327462101 ], [ -73.172340678905812, 5.829096279052508 ], [ -73.172128356098753, 5.828800906285622 ], [ -73.171974696912415, 5.828463224165681 ], [ -73.171931388585065, 5.828110169556415 ], [ -73.171943794468106, 5.827751779278172 ], [ -73.171980582772477, 5.827389178753672 ], [ -73.172027938870684, 5.827024697131114 ], [ -73.172071771592968, 5.826660480836276 ], [ -73.172098356751093, 5.826298858995167 ], [ -73.172093605985808, 5.825942067631079 ], [ -73.172013539210326, 5.825597361942145 ], [ -73.171862671791956, 5.825263482571854 ], [ -73.171711537425367, 5.824927793241494 ], [ -73.171600598244652, 5.824580143871246 ], [ -73.171498611125386, 5.82422428162447 ], [ -73.171446640258395, 5.823868861167241 ], [ -73.171496316485829, 5.823520295906523 ], [ -73.171640422910158, 5.823175410576981 ], [ -73.171783985488304, 5.822831608657405 ], [ -73.171828870441146, 5.822486742636451 ], [ -73.171762347414244, 5.822141606471084 ], [ -73.171640300043023, 5.821796743304906 ], [ -73.171501280029887, 5.821451038188306 ], [ -73.171383660964636, 5.821103377164954 ], [ -73.171321307469242, 5.820747940795841 ], [ -73.171315697693188, 5.820363391560071 ], [ -73.171408169744453, 5.820013720038689 ], [ -73.171619770645819, 5.819746972366183 ], [ -73.171886389781022, 5.819513587736022 ], [ -73.172183858359517, 5.819297159533233 ], [ -73.172490620055683, 5.819084181803004 ], [ -73.172785480040943, 5.818861239023751 ], [ -73.173047342418712, 5.818610395231224 ], [ -73.173277846093427, 5.818321706775424 ], [ -73.173506813625764, 5.818034008767405 ], [ -73.173765593349927, 5.81779039290119 ], [ -73.174071313352087, 5.817606255077005 ], [ -73.174394996762956, 5.817424679015767 ], [ -73.174730315523121, 5.817249359934823 ], [ -73.175073283702332, 5.817089331815146 ], [ -73.175420004916873, 5.816953814142718 ], [ -73.175766400158423, 5.816851658135685 ], [ -73.17610866524015, 5.816791991864547 ], [ -73.176443074413527, 5.816789093715718 ], [ -73.176771199313094, 5.816877957591498 ], [ -73.17709641274584, 5.817036166594868 ], [ -73.177421749686701, 5.817230361623039 ], [ -73.17775051347779, 5.8174273635787 ], [ -73.178085555504751, 5.817593816123284 ], [ -73.178429354622025, 5.817704495324771 ], [ -73.178777154142011, 5.817797369062305 ], [ -73.179127312026324, 5.817883645318833 ], [ -73.179479555589353, 5.817964047268671 ], [ -73.17983352271402, 5.818039388614872 ], [ -73.180188671400302, 5.818110302119559 ], [ -73.18054472803415, 5.818177418650312 ], [ -73.180901241070103, 5.818241641536092 ], [ -73.181257849244503, 5.818303606199233 ], [ -73.181614278072701, 5.818364031294578 ], [ -73.181969897005089, 5.818423552332827 ], [ -73.18233177347183, 5.818465179359232 ], [ -73.182696436372154, 5.818457714667878 ], [ -73.183043423956235, 5.818380961771714 ], [ -73.183354669466226, 5.818185074894622 ], [ -73.183609138148611, 5.817924989648652 ], [ -73.183842531946027, 5.817632593765678 ], [ -73.184078441819011, 5.817347434219796 ], [ -73.184340458834612, 5.817109332159397 ], [ -73.184647400396301, 5.816950689284401 ], [ -73.184984225776759, 5.816848060204436 ], [ -73.185339595250483, 5.816779728694477 ], [ -73.185704960081125, 5.816728410305929 ], [ -73.186071859091214, 5.816676643204455 ], [ -73.186431654879129, 5.816607052516408 ], [ -73.186780568159563, 5.816510860145652 ], [ -73.187132460625307, 5.816414584220541 ], [ -73.187486700770549, 5.816318672013077 ], [ -73.187840493305544, 5.816219503562212 ], [ -73.188190776296665, 5.816113278003932 ], [ -73.188534756217109, 5.815996282176826 ], [ -73.188869550073164, 5.815864803861214 ], [ -73.189192003802802, 5.815715224149272 ], [ -73.189498965687477, 5.815542833619515 ], [ -73.1897751220814, 5.815324914821391 ], [ -73.190023627905902, 5.81506508852973 ], [ -73.190256733541787, 5.81478109670693 ], [ -73.190486960443394, 5.814490590702203 ], [ -73.190726648433952, 5.814211220095785 ], [ -73.190987959292912, 5.813960545817789 ], [ -73.191266477479431, 5.813732231651707 ], [ -73.19155247602113, 5.813512518607387 ], [ -73.1918439715256, 5.813299053454368 ], [ -73.192138892041427, 5.813089481186234 ], [ -73.192435434060215, 5.812881628613344 ], [ -73.192731616023465, 5.812673233016049 ], [ -73.193025364137441, 5.812461849806304 ], [ -73.193314877599832, 5.812245305805515 ], [ -73.193598714477645, 5.812021790618807 ], [ -73.193879937612564, 5.811795106898667 ], [ -73.19415962816332, 5.811566430771311 ], [ -73.194437876555625, 5.811335944111938 ], [ -73.194715045273924, 5.811104009700846 ], [ -73.194991131637124, 5.810870716230069 ], [ -73.195266315594338, 5.810636426542145 ], [ -73.195540960471774, 5.810401322416668 ], [ -73.19581497328781, 5.810165675385226 ], [ -73.196088805924916, 5.809929665386014 ], [ -73.196362367240553, 5.809693654449042 ], [ -73.196635387731149, 5.809457010076834 ], [ -73.196907146850108, 5.809218736121526 ], [ -73.197177643756163, 5.808979013584238 ], [ -73.197446879352256, 5.808737841561505 ], [ -73.197714671975646, 5.808495130524106 ], [ -73.197981112956398, 5.808251060536162 ], [ -73.198246201327876, 5.808005451505844 ], [ -73.198516702428876, 5.80776292558472 ], [ -73.198794237633948, 5.807524207096178 ], [ -73.199070061353765, 5.807283586780144 ], [ -73.199335604275902, 5.807035535425086 ], [ -73.199582389202092, 5.8067743455182 ], [ -73.19980193800572, 5.806494215440476 ], [ -73.199983068229599, 5.806187442238738 ], [ -73.200129388858429, 5.8058561124944 ], [ -73.200256138995542, 5.805511007473357 ], [ -73.200378379674291, 5.805162822514214 ], [ -73.200511351816786, 5.804822518947945 ], [ -73.200670115529704, 5.804500882587287 ], [ -73.200869909785467, 5.804208605043593 ], [ -73.201114163046412, 5.803948584660975 ], [ -73.20138826521783, 5.803710130447119 ], [ -73.201675894390377, 5.803481552926182 ], [ -73.202100941876751, 5.803128684851128 ], [ -73.202548175976943, 5.803138875354962 ], [ -73.202910465824573, 5.803142875943144 ], [ -73.203272755733735, 5.803147056393135 ], [ -73.203634317838706, 5.803155214325926 ], [ -73.20399469343414, 5.803170783458983 ], [ -73.204353155609468, 5.803197652819954 ], [ -73.20470496186978, 5.803267640129596 ], [ -73.205046102857281, 5.803403162669355 ], [ -73.205394285253931, 5.803481732922329 ], [ -73.205755930423052, 5.803494140221468 ], [ -73.206121234074843, 5.80347580961589 ], [ -73.206480177309089, 5.803425913066786 ], [ -73.206820602745708, 5.803324903524324 ], [ -73.207142266457041, 5.803153337300225 ], [ -73.207467799000582, 5.802990820333451 ], [ -73.207804302534029, 5.802856077065722 ], [ -73.208143866807106, 5.802727125348475 ], [ -73.208479739179282, 5.802592109517792 ], [ -73.208804894898165, 5.802438903433177 ], [ -73.209109256384693, 5.802247057051914 ], [ -73.209387065971114, 5.802002636525012 ], [ -73.209659642917472, 5.801754681087391 ], [ -73.209950019649298, 5.801556663769411 ], [ -73.210313742556792, 5.801451256123539 ], [ -73.210684902784806, 5.801498483688959 ], [ -73.210930931042952, 5.801724093187103 ], [ -73.211140124509626, 5.802009230569269 ], [ -73.21133310965017, 5.802325446906351 ], [ -73.211525541271996, 5.80264943637163 ], [ -73.21173298462368, 5.802957627082701 ], [ -73.211970003607746, 5.803230963432471 ], [ -73.212231309903927, 5.803502527632671 ], [ -73.212511686370448, 5.803761281580586 ], [ -73.212809281161412, 5.803977476061874 ], [ -73.213122336300884, 5.804121268617958 ], [ -73.213455123689101, 5.804172506105725 ], [ -73.21381149780845, 5.8041497258499 ], [ -73.214179505129948, 5.804076421465542 ], [ -73.214546561412206, 5.803975989095013 ], [ -73.214900171073666, 5.803871918996519 ], [ -73.215228036924543, 5.803717357077624 ], [ -73.21554162027634, 5.803516388687695 ], [ -73.215864610166207, 5.803362904307651 ], [ -73.216212539409469, 5.80331217050954 ], [ -73.216571966704393, 5.803300244587324 ], [ -73.21693704097531, 5.803314908622784 ], [ -73.217303077940556, 5.80334928644614 ], [ -73.217665032611706, 5.803396133706489 ], [ -73.218018367956219, 5.803472082331876 ], [ -73.218362359270131, 5.803635721936737 ], [ -73.218698558631274, 5.803759113818011 ], [ -73.219031214424405, 5.803719477609164 ], [ -73.219362338839289, 5.803559130974612 ], [ -73.219674678861566, 5.803343872785882 ], [ -73.219946696990135, 5.803105405245159 ], [ -73.220179974073687, 5.802814435851583 ], [ -73.220418737005261, 5.802537851826431 ], [ -73.220707296962033, 5.802345430832873 ], [ -73.221047849700227, 5.802218281090572 ], [ -73.22141360194712, 5.802142706852987 ], [ -73.221779898747315, 5.802124368513627 ], [ -73.222133208009183, 5.802157636886922 ], [ -73.222487743439331, 5.802216044382559 ], [ -73.222842518178751, 5.802294614823365 ], [ -73.223195734396796, 5.802389638441435 ], [ -73.223545319514201, 5.802497315082901 ], [ -73.22388938524432, 5.802613753122189 ], [ -73.224224128020964, 5.802745277267771 ], [ -73.224542821673623, 5.802922618363633 ], [ -73.224854174845447, 5.803119206880861 ], [ -73.225168168278117, 5.803301242772031 ], [ -73.225495235365088, 5.803434923980286 ], [ -73.225846892261757, 5.803487176514975 ], [ -73.226214536436572, 5.803474261987182 ], [ -73.226579514025616, 5.803434307078813 ], [ -73.22693953543974, 5.803388287752606 ], [ -73.227299314202043, 5.803323190126697 ], [ -73.227647761908997, 5.803227874573311 ], [ -73.227969664940261, 5.803075104223347 ], [ -73.228254512967553, 5.802828513482696 ], [ -73.228544809009051, 5.8026208106938 ], [ -73.228883948271815, 5.802591665858461 ], [ -73.22925016116487, 5.802690322086755 ], [ -73.229601760094596, 5.802780729557285 ], [ -73.229953632633539, 5.802870411793707 ], [ -73.230302510781669, 5.802969313288571 ], [ -73.230643869024547, 5.803085923824641 ], [ -73.230972909191536, 5.803229280826931 ], [ -73.231286821420753, 5.803406972928025 ], [ -73.231591855822842, 5.803604905036146 ], [ -73.231895893677049, 5.803804914338139 ], [ -73.232206818077799, 5.803988931218952 ], [ -73.232532231821239, 5.804142950487599 ], [ -73.232873000919668, 5.804292110666552 ], [ -73.233223369630721, 5.804421935114781 ], [ -73.233576969990196, 5.804503751736555 ], [ -73.233927705270304, 5.804509432243764 ], [ -73.234275723412125, 5.804460587822213 ], [ -73.234623776490466, 5.80438931834999 ], [ -73.234971944878239, 5.804299965951987 ], [ -73.235320043440751, 5.804197231240217 ], [ -73.235668336912227, 5.804085454452112 ], [ -73.236016545299606, 5.803969337143509 ], [ -73.23636475447806, 5.803853310124802 ], [ -73.236712955528048, 5.803741985244072 ], [ -73.237061143983325, 5.803639792443566 ], [ -73.236795165794135, 5.803887048367417 ], [ -73.236557953292433, 5.804157675354536 ], [ -73.236339660091275, 5.804454913808831 ], [ -73.236151587710097, 5.80476747739043 ], [ -73.236044378480827, 5.805100054579266 ], [ -73.236059722736002, 5.805464190206809 ], [ -73.236070369262649, 5.80583103100345 ], [ -73.236007898233424, 5.806190891333358 ], [ -73.235906616620213, 5.806543279030605 ], [ -73.235742190609798, 5.806860398314202 ], [ -73.235536688300144, 5.807176191656972 ], [ -73.235299256881476, 5.807470506446557 ], [ -73.235027074964989, 5.807699216359349 ], [ -73.234713050483791, 5.807835185358972 ], [ -73.23435433353086, 5.80791349027292 ], [ -73.233975380997052, 5.807938329109323 ], [ -73.233602649511425, 5.807909467358845 ], [ -73.233258891332028, 5.807825766211203 ], [ -73.232932464397223, 5.807683499225361 ], [ -73.232614042076378, 5.807501732134823 ], [ -73.232298894955747, 5.807302880859013 ], [ -73.231982384990786, 5.807109724173742 ], [ -73.231659785460138, 5.806944858979474 ], [ -73.231326544898806, 5.806830882096412 ], [ -73.230978664352435, 5.806787046160009 ], [ -73.230618963548835, 5.806799071919318 ], [ -73.230252807489563, 5.806840834539326 ], [ -73.229885201597, 5.80688621205711 ], [ -73.229521241725138, 5.806909080673398 ], [ -73.229152915325798, 5.806893604446667 ], [ -73.228779018725461, 5.806859675607456 ], [ -73.228409352892101, 5.806834522341504 ], [ -73.228053535431783, 5.806845738554286 ], [ -73.227720913626101, 5.806920732762342 ], [ -73.227404767187934, 5.807086894625686 ], [ -73.22711270103504, 5.807328590073349 ], [ -73.226865436849423, 5.80761547273246 ], [ -73.226682517181146, 5.807919450161228 ], [ -73.226556257125779, 5.808248379031623 ], [ -73.22646679761047, 5.80860014874427 ], [ -73.226396821461051, 5.808963611300141 ], [ -73.226329009697494, 5.809327711904885 ], [ -73.226251186698022, 5.809685647167458 ], [ -73.226208796983826, 5.810075011329674 ], [ -73.226166589867063, 5.810462387141926 ], [ -73.226059922095004, 5.810789988582849 ], [ -73.225835776703178, 5.811011713821845 ], [ -73.225528044046797, 5.811164504604442 ], [ -73.225170272150478, 5.811271919790476 ], [ -73.224790063901168, 5.811350457193737 ], [ -73.224414749236914, 5.811416523400491 ], [ -73.224057799510945, 5.811458295671765 ], [ -73.223692375605339, 5.811431970308431 ], [ -73.223330086069765, 5.811423009390587 ], [ -73.222972825829146, 5.811491183386015 ], [ -73.222602976207483, 5.811585286566483 ], [ -73.222246448981863, 5.811705088803408 ], [ -73.221931586060393, 5.811855514826039 ], [ -73.221745139843179, 5.81210134721185 ], [ -73.221824529994876, 5.81249541725277 ], [ -73.221949231933678, 5.81283711468415 ], [ -73.222096508895689, 5.813176585967776 ], [ -73.222275688529535, 5.813493591757148 ], [ -73.222498995097553, 5.813766722297864 ], [ -73.222793537016983, 5.813977482351902 ], [ -73.223120896529466, 5.814159902075606 ], [ -73.223425751029552, 5.814358561562869 ], [ -73.223666213440737, 5.814629729120846 ], [ -73.223854859563673, 5.815016188839579 ], [ -73.223879914082289, 5.815343086971946 ], [ -73.223649913301401, 5.815494276732279 ], [ -73.223259434576036, 5.815556340966776 ], [ -73.222848596846163, 5.815589258605056 ], [ -73.222483325918788, 5.815639335674243 ], [ -73.222113103576305, 5.815679549122869 ], [ -73.221757512185192, 5.815657577192232 ], [ -73.221428244764653, 5.815542605718517 ], [ -73.221109705976033, 5.815377739358771 ], [ -73.220800064716201, 5.815180517620015 ], [ -73.220499118964739, 5.814965768009454 ], [ -73.220206391853424, 5.814748047549173 ], [ -73.219931032281224, 5.81450973789169 ], [ -73.219671962745082, 5.814245232139608 ], [ -73.219414422777291, 5.813983983640422 ], [ -73.219143923876828, 5.813755446515762 ], [ -73.218826954695444, 5.813628376157213 ], [ -73.218449952364125, 5.813675628836207 ], [ -73.218099860146097, 5.81377825830739 ], [ -73.217753324579988, 5.813916247019264 ], [ -73.217407844772723, 5.814013096811529 ], [ -73.217062263067291, 5.813999998728596 ], [ -73.216718627085172, 5.813895219279035 ], [ -73.216375139408754, 5.8137525556074 ], [ -73.216029192898418, 5.813623631373542 ], [ -73.215678002864536, 5.813559256714575 ], [ -73.215311219974183, 5.813536269534402 ], [ -73.214932228508999, 5.813526644472721 ], [ -73.214553742716191, 5.81353989540374 ], [ -73.214188570764833, 5.813585446606245 ], [ -73.213849153995355, 5.813672899909763 ], [ -73.213549015339709, 5.813816472231867 ], [ -73.213298654766419, 5.814056053621175 ], [ -73.213087728484595, 5.814366040333579 ], [ -73.212902757916424, 5.814706177020586 ], [ -73.212730441799138, 5.815036657121536 ], [ -73.212583037058963, 5.815371426516793 ], [ -73.212462593964815, 5.815726940865398 ], [ -73.212352433088242, 5.816088982664284 ], [ -73.212235874934123, 5.816443239373109 ], [ -73.212096146029822, 5.816775487163888 ], [ -73.211916659903466, 5.817071417956873 ], [ -73.211683705275746, 5.817320970609234 ], [ -73.211413771614616, 5.817547409898744 ], [ -73.211116779452638, 5.817756267006528 ], [ -73.210798237082301, 5.817946555199416 ], [ -73.210463926549906, 5.818117106652265 ], [ -73.21011935447018, 5.818267207961084 ], [ -73.209770301074144, 5.81839560263588 ], [ -73.209422187115536, 5.818501484115855 ], [ -73.209078356326842, 5.818580428456002 ], [ -73.208725477510569, 5.81861378685267 ], [ -73.208363539287504, 5.818609698808452 ], [ -73.207995768239755, 5.818581732598154 ], [ -73.207625485732294, 5.81854327275714 ], [ -73.207255830591549, 5.818507798017135 ], [ -73.206890213606897, 5.818488784304772 ], [ -73.206531862996215, 5.818499710338443 ], [ -73.206184007881319, 5.818554142629702 ], [ -73.205850060880806, 5.818663389670392 ], [ -73.205527781816386, 5.818817681984092 ], [ -73.20521258971398, 5.819001280690653 ], [ -73.204900084263087, 5.819198173524531 ], [ -73.204585686260003, 5.819392351894431 ], [ -73.204264907862566, 5.81956798454416 ], [ -73.203934065684663, 5.81971222639732 ], [ -73.203595311023321, 5.819836654252982 ], [ -73.203251516908679, 5.819949591200401 ], [ -73.202905203826532, 5.82005655588484 ], [ -73.202558801886823, 5.820163068800441 ], [ -73.202214737637263, 5.820274828732831 ], [ -73.201875442069067, 5.820397357093314 ], [ -73.201543344321649, 5.820536079370481 ], [ -73.201210871699544, 5.820683300394796 ], [ -73.200876046282488, 5.820834495897374 ], [ -73.200544095359618, 5.820993743731541 ], [ -73.2002203436831, 5.821164757015514 ], [ -73.199910017666767, 5.82135170503155 ], [ -73.199618529781915, 5.821558483698329 ], [ -73.199351291696075, 5.82178926134751 ], [ -73.199116048072582, 5.822055169428046 ], [ -73.198907391407047, 5.822351047796714 ], [ -73.198715227365454, 5.822665307057394 ], [ -73.198529733676196, 5.82298653870171 ], [ -73.198340815931331, 5.823302972306283 ], [ -73.198138651813025, 5.823603110647568 ], [ -73.197913238233852, 5.823875362431893 ], [ -73.19761544073836, 5.824074354849189 ], [ -73.197255487607194, 5.824183644978175 ], [ -73.196898161958686, 5.824230009682929 ], [ -73.196538737278587, 5.824232879038961 ], [ -73.196175193452405, 5.82421422429955 ], [ -73.1958109261831, 5.824196651949883 ], [ -73.195449330244443, 5.824202862605671 ], [ -73.195085616673438, 5.824234297777362 ], [ -73.194709090536008, 5.82426200403725 ], [ -73.194333357322762, 5.824301556155834 ], [ -73.193972925961461, 5.824370608308097 ], [ -73.193642123679069, 5.824486723364044 ], [ -73.193352302923415, 5.82466511044758 ], [ -73.193083981447643, 5.824892265627459 ], [ -73.192832398030163, 5.825155612944541 ], [ -73.192599546978258, 5.825447020360587 ], [ -73.192387340294701, 5.825758079842989 ], [ -73.192197776787353, 5.826080477449429 ], [ -73.192032945710253, 5.826406079300553 ], [ -73.191891767571519, 5.826733254078471 ], [ -73.191768451387745, 5.82706904825043 ], [ -73.191659388375058, 5.827412097417232 ], [ -73.191561149482595, 5.82776077014125 ], [ -73.191470398637748, 5.828113160736959 ], [ -73.191383617373802, 5.828467818790939 ], [ -73.191297557290156, 5.828822929083175 ], [ -73.191208608603219, 5.829176950728031 ], [ -73.191113525608159, 5.829528068500948 ], [ -73.191008789746306, 5.829874650981822 ], [ -73.190890971914328, 5.830215064002523 ], [ -73.190753191934334, 5.830561233192785 ], [ -73.190583555956621, 5.830898127885553 ], [ -73.190370833009823, 5.831190739411448 ], [ -73.19010477809303, 5.831409487806712 ], [ -73.189793920585487, 5.83158530646461 ], [ -73.189453137816102, 5.831729251152272 ], [ -73.189095344611928, 5.831839714731746 ], [ -73.188733813798962, 5.83191545106741 ], [ -73.18837929166034, 5.831955575089942 ], [ -73.188023191710684, 5.831966039114516 ], [ -73.187663697189507, 5.8319537135584 ], [ -73.187301881155364, 5.831925107685384 ], [ -73.186938906056056, 5.831886554258786 ], [ -73.186575666923872, 5.831844654917604 ], [ -73.186213326142791, 5.831805650122241 ], [ -73.185852779566886, 5.831773249153568 ], [ -73.18549189644574, 5.831725837815699 ], [ -73.185130758169379, 5.831669021619694 ], [ -73.184770422390997, 5.831617633086882 ], [ -73.184411860903808, 5.831586588935222 ], [ -73.184056133004091, 5.831590451099671 ], [ -73.183704481132594, 5.8316429633435 ], [ -73.183356737155947, 5.831735897515689 ], [ -73.183010672738035, 5.831850354430536 ], [ -73.182664152782053, 5.831967793243487 ], [ -73.182315312289063, 5.832069225043548 ], [ -73.181954834549799, 5.83216358423439 ], [ -73.181578889796086, 5.832276183840079 ], [ -73.181206039420857, 5.832372964696177 ], [ -73.180855389460874, 5.832418694635467 ], [ -73.180545509755262, 5.832376878332541 ], [ -73.180251106239552, 5.832141864843241 ], [ -73.180032668034343, 5.831771529201761 ] ] ] ] } }
]
}
