{
"type": "FeatureCollection",
"name": "Clase VII con limitaciones por pendiente y suelo",
"features": [
{ "type": "Feature", "properties": { "OBJECTID": 651, "UCS_CP": "VIIps1", "CLASE": "VII", "SUBCLASE": "ps", "GRUPO_MANEJO": "1", "UCS": "MKEf, MKCf, MKVf, MKVfp, MKVf1, MLEf", "PRINCIPALES_CARACTERÍSTICAS": "Clima frío muy húmedo, relieve de vigas, fi las y crestones donde dominan las topografías fuertemente quebradas y escarpadas con pendientes mayores de 50%", "PRINCIPALES_LIMITANTES": "Pendientes fuertes, susceptibilidad a la erosión, niveles tóxicos de aluminio, baja fertilidad", "USO_ACTUAL": "Ganadería extensiva, cultivos de subsistencia, bosque", "USOS_RECOMENDADOS": "Bosque productivo-protector; ganadería controlada", "PRACTICAS_MANEJO": "Evitar aprovechamiento del bosque con tala rasa, debe hacerse selectivo; en ganadería utilizar baja carga y hacer rotación de potreros", "ÁREA_HA_1": 915.54838759042377, "Shape_Length": 20295.242370373489, "Shape_Area": 9155483.8759042379 }, "geometry": { "type": "MultiPolygon", "coordinates": [ [ [ [ 4980077.806800000369549, 2202403.0482 ], [ 4980080.490600000135601, 2202364.72829999960959 ], [ 4980064.056200000457466, 2202333.818299999460578 ], [ 4980040.080900000408292, 2202304.0318 ], [ 4980011.230999999679625, 2202274.734099999070168 ], [ 4979980.192900000140071, 2202245.330900000408292 ], [ 4979949.663099999539554, 2202215.207299999892712 ], [ 4979922.307699999772012, 2202183.75870000012219 ], [ 4979900.753200000151992, 2202150.35080000013113 ], [ 4979882.92, 2202114.2083 ], [ 4979867.190600000321865, 2202075.813799999654293 ], [ 4979854.326100000180304, 2202036.1349 ], [ 4979845.047799999825656, 2201996.159499999135733 ], [ 4979840.11670000012964, 2201956.884999999776483 ], [ 4979840.433799999766052, 2201919.07909999974072 ], [ 4979850.168999999761581, 2201879.626599999144673 ], [ 4979868.926599999889731, 2201840.566299999132752 ], [ 4979894.148, 2201806.479100000113249 ], [ 4979923.303999999538064, 2201781.885600000619888 ], [ 4979958.519299999810755, 2201765.043299999088049 ], [ 4979999.349999999627471, 2201753.715299999341369 ], [ 4980042.111100000329316, 2201748.697699999436736 ], [ 4980083.077499999664724, 2201750.777000000700355 ], [ 4980119.443099999800324, 2201760.677999999374151 ], [ 4980153.9243, 2201777.746099999174476 ], [ 4980187.3065, 2201800.061499999836087 ], [ 4980219.835900000296533, 2201825.665300000458956 ], [ 4980251.7483, 2201852.599300000816584 ], [ 4980283.2599, 2201878.884500000625849 ], [ 4980314.4792, 2201903.821599999442697 ], [ 4980345.21, 2201929.369000000879169 ], [ 4980375.482599999755621, 2201955.526799999177456 ], [ 4980405.316399999894202, 2201982.204900000244379 ], [ 4980434.741499999538064, 2202009.323400000110269 ], [ 4980463.78760000038892, 2202036.792300000786781 ], [ 4980492.11600000038743, 2202065.071900000795722 ], [ 4980517.5746, 2202097.323200000450015 ], [ 4980542.324900000356138, 2202130.125399999320507 ], [ 4980569.415, 2202158.707100000232458 ], [ 4980601.813500000163913, 2202178.6064 ], [ 4980639.730499999597669, 2202190.013000000268221 ], [ 4980680.534400000236928, 2202195.928999999538064 ], [ 4980721.453300000168383, 2202199.327299999073148 ], [ 4980762.101300000213087, 2202202.176400000229478 ], [ 4980803.320299999788404, 2202200.578600000590086 ], [ 4980840.003700000233948, 2202188.698899999260902 ], [ 4980872.400999999605119, 2202166.417199999094009 ], [ 4980902.159199999645352, 2202138.126000000163913 ], [ 4980928.9051, 2202107.173100000247359 ], [ 4980952.390700000338256, 2202074.527899999171495 ], [ 4980969.3832, 2202037.209599999710917 ], [ 4980974.163800000213087, 2201998.196399999782443 ], [ 4980972.778900000266731, 2201958.595499999821186 ], [ 4980968.6957, 2201918.530200000852346 ], [ 4980963.443, 2201878.257400000467896 ], [ 4980958.580199999734759, 2201838.01380000077188 ], [ 4980955.6261, 2201798.05629999935627 ], [ 4980956.1398, 2201758.63150000013411 ], [ 4980964.988400000147521, 2201720.539599999785423 ], [ 4980981.6722, 2201683.64159999974072 ], [ 4980998.385499999858439, 2201646.543600000441074 ], [ 4981010.650399999693036, 2201608.125399999320507 ], [ 4981021.9244, 2201568.800000000745058 ], [ 4981027.663599999621511, 2201529.525100000202656 ], [ 4981022.154699999839067, 2201491.011099999770522 ], [ 4981006.19620000012219, 2201452.906899999827147 ], [ 4980990.297899999655783, 2201414.922399999573827 ], [ 4980985.319299999624491, 2201376.816999999806285 ], [ 4980992.669200000353158, 2201338.677999999374151 ], [ 4981006.163499999791384, 2201300.567299999296665 ], [ 4981021.536000000312924, 2201262.362999999895692 ], [ 4981034.540199999697506, 2201223.943299999460578 ], [ 4981041.428399999625981, 2201184.666300000622869 ], [ 4981042.036299999803305, 2201142.1743 ], [ 4981031.791500000283122, 2201103.5395 ], [ 4981008.366499999538064, 2201074.071599999442697 ], [ 4980978.8542, 2201048.292099999263883 ], [ 4980945.928600000217557, 2201024.387299999594688 ], [ 4980911.974700000137091, 2201000.864099999889731 ], [ 4980879.337500000372529, 2200976.239399999380112 ], [ 4980850.3509, 2200948.530600000172853 ], [ 4980824.833200000226498, 2200916.639000000432134 ], [ 4980799.485500000417233, 2200884.856799999251962 ], [ 4980770.840200000442564, 2200857.946599999442697 ], [ 4980737.002399999648333, 2200837.610200000926852 ], [ 4980701.176799999549985, 2200817.557499999180436 ], [ 4980664.063799999654293, 2200798.196599999442697 ], [ 4980626.104799999855459, 2200780.52559999935329 ], [ 4980587.731300000101328, 2200765.563100000843406 ], [ 4980549.394999999552965, 2200754.287000000476837 ], [ 4980511.517199999652803, 2200747.705800000578165 ], [ 4980474.510700000450015, 2200747.397099999710917 ], [ 4980438.2028, 2200757.227700000628829 ], [ 4980402.219499999657273, 2200774.72069999948144 ], [ 4980366.223799999803305, 2200796.190099999308586 ], [ 4980329.849000000394881, 2200817.969799999147654 ], [ 4980292.778400000184774, 2200836.374099999666214 ], [ 4980254.7368, 2200848.615900000557303 ], [ 4980216.251899999566376, 2200858.8904 ], [ 4980177.505800000391901, 2200868.436000000685453 ], [ 4980138.528699999675155, 2200877.332599999383092 ], [ 4980099.3607, 2200885.670099999755621 ], [ 4980060.06180000025779, 2200893.518400000408292 ], [ 4980020.6623, 2200900.947200000286102 ], [ 4979981.2122, 2200908.05629999935627 ], [ 4979941.751500000245869, 2200914.915899999439716 ], [ 4979902.310600000433624, 2200921.605399999767542 ], [ 4979862.959300000220537, 2200928.195000000298023 ], [ 4979822.914900000207126, 2200932.807600000873208 ], [ 4979782.560399999842048, 2200931.995799999684095 ], [ 4979744.159400000236928, 2200923.527200000360608 ], [ 4979709.7094, 2200901.893300000578165 ], [ 4979681.54009999986738, 2200873.163599999621511 ], [ 4979655.7018, 2200840.8629 ], [ 4979629.58530000038445, 2200809.3619 ], [ 4979600.581399999558926, 2200783.061599999666214 ], [ 4979566.608900000341237, 2200765.542999999597669 ], [ 4979529.331399999558926, 2200754.2149 ], [ 4979490.002999999560416, 2200746.677300000563264 ], [ 4979449.5691, 2200741.019999999552965 ], [ 4979408.965400000102818, 2200735.313200000673532 ], [ 4979369.147099999710917, 2200727.636700000613928 ], [ 4979330.532100000418723, 2200717.020400000736117 ], [ 4979291.58739999961108, 2200706.394999999552965 ], [ 4979252.38289999961853, 2200695.809900000691414 ], [ 4979213.227800000458956, 2200684.865000000223517 ], [ 4979174.460799999535084, 2200673.1402000002563 ], [ 4979136.3909, 2200660.225099999457598 ], [ 4979099.337000000290573, 2200645.7094 ], [ 4979063.648, 2200629.193099999800324 ], [ 4979029.672500000335276, 2200610.1557 ], [ 4978999.104299999773502, 2200586.086400000378489 ], [ 4978971.594399999827147, 2200557.38539999909699 ], [ 4978945.7878, 2200526.013599999248981 ], [ 4978920.299499999731779, 2200493.921900000423193 ], [ 4978893.764600000344217, 2200463.061000000685453 ], [ 4978864.837899999693036, 2200435.371799999848008 ], [ 4978834.007799999788404, 2200410.153999999165535 ], [ 4978802.350200000219047, 2200385.886900000274181 ], [ 4978770.084499999880791, 2200362.310399999842048 ], [ 4978737.439899999648333, 2200339.164200000464916 ], [ 4978704.615899999625981, 2200316.208100000396371 ], [ 4978671.8317, 2200293.191999999806285 ], [ 4978639.316700000315905, 2200269.84569999948144 ], [ 4978607.270100000314415, 2200245.928999999538064 ], [ 4978575.8514, 2200221.241800000891089 ], [ 4978544.721800000406802, 2200196.2043999992311 ], [ 4978513.761699999682605, 2200170.94679999910295 ], [ 4978482.9611, 2200145.489099999889731 ], [ 4978452.279900000430644, 2200119.871400000527501 ], [ 4978421.718399999663234, 2200094.103499999269843 ], [ 4978391.256699999794364, 2200068.22550000064075 ], [ 4978360.854600000195205, 2200042.257500000298023 ], [ 4978330.52240000013262, 2200016.229499999433756 ], [ 4978300.210099999792874, 2199990.161399999633431 ], [ 4978269.927799999713898, 2199964.0932 ], [ 4978239.705299999564886, 2199937.955 ], [ 4978209.6223, 2199911.636700000613928 ], [ 4978179.678899999707937, 2199885.158299999311566 ], [ 4978149.875, 2199858.5197 ], [ 4978120.230700000189245, 2199831.710999999195337 ], [ 4978090.73589999973774, 2199804.752100000157952 ], [ 4978061.390700000338256, 2199777.623099999502301 ], [ 4978031.446600000374019, 2199750.83500000089407 ], [ 4978000.7242, 2199724.4679000005126 ], [ 4977970.191100000403821, 2199697.890599999576807 ], [ 4977940.795400000177324, 2199670.491800000891089 ], [ 4977913.474999999627471, 2199641.64049999974668 ], [ 4977889.167899999767542, 2199610.695299999788404 ], [ 4977869.1113, 2199576.80460000038147 ], [ 4977852.905899999663234, 2199540.199100000783801 ], [ 4977838.8657, 2199502.070699999108911 ], [ 4977825.324400000274181, 2199463.601800000295043 ], [ 4977810.595800000242889, 2199426.004200000315905 ], [ 4977793.0137, 2199390.470300000160933 ], [ 4977770.892099999822676, 2199358.182099999859929 ], [ 4977743.851700000464916, 2199329.46000000089407 ], [ 4977713.508899999782443, 2199303.122099999338388 ], [ 4977681.669499999843538, 2199277.8761 ], [ 4977634.61780000012368, 2199238.901699999347329 ], [ 4977585.125099999830127, 2199240.045399999246001 ], [ 4977545.03249999973923, 2199240.501800000667572 ], [ 4977504.939899999648333, 2199240.9781 ], [ 4977464.928000000305474, 2199241.893899999558926 ], [ 4977425.0477, 2199243.628599999472499 ], [ 4977385.379599999636412, 2199246.6119 ], [ 4977346.449799999594688, 2199254.359400000423193 ], [ 4977308.7029, 2199269.347999999299645 ], [ 4977270.174499999731779, 2199278.043800000101328 ], [ 4977230.153599999845028, 2199279.429300000891089 ], [ 4977189.726599999703467, 2199277.418500000610948 ], [ 4977150.0022, 2199271.91950000077486 ], [ 4977112.325000000186265, 2199260.7719 ], [ 4977076.721199999563396, 2199241.827199999243021 ], [ 4977040.689600000157952, 2199223.88260000012815 ], [ 4977003.445000000298023, 2199209.007400000467896 ], [ 4976965.8619, 2199194.772299999371171 ], [ 4976928.68709999974817, 2199179.867000000551343 ], [ 4976892.697499999776483, 2199162.95130000077188 ], [ 4976859.007500000298023, 2199141.765100000426173 ], [ 4976828.253700000233948, 2199114.768500000238419 ], [ 4976798.07880000025034, 2199087.381100000813603 ], [ 4976765.936099999584258, 2199065.512499999254942 ], [ 4976725.68030000012368, 2199053.880100000649691 ], [ 4976684.607699999585748, 2199059.113900000229478 ], [ 4976657.3902000002563, 2199084.053400000557303 ], [ 4976634.251500000245869, 2199115.5691 ], [ 4976612.907800000160933, 2199150.518300000578165 ], [ 4976591.62569999974221, 2199186.326400000602007 ], [ 4976568.681699999608099, 2199220.389399999752641 ], [ 4976542.4633, 2199250.602299999445677 ], [ 4976513.557099999859929, 2199280.620400000363588 ], [ 4976482.54, 2199309.223799999803305 ], [ 4976449.6157, 2199333.125199999660254 ], [ 4976414.9775, 2199349.027000000700355 ], [ 4976378.151800000108778, 2199354.702500000596046 ], [ 4976338.712799999862909, 2199352.200200000777841 ], [ 4976297.984299999661744, 2199344.115599999204278 ], [ 4976257.359899999573827, 2199333.033399999141693 ], [ 4976218.223399999551475, 2199321.54869999922812 ], [ 4976181.9337, 2199304.48369999974966 ], [ 4976147.2226, 2199282.290300000458956 ], [ 4976111.472500000149012, 2199265.344200000166893 ], [ 4976072.966799999587238, 2199259.752900000661612 ], [ 4976033.1903, 2199258.450300000607967 ], [ 4975992.79, 2199260.086100000888109 ], [ 4975952.284, 2199263.900299999862909 ], [ 4975912.2303, 2199269.092199999839067 ], [ 4975873.131699999794364, 2199277.499399999156594 ], [ 4975835.070899999700487, 2199295.595899999141693 ], [ 4975797.870699999853969, 2199309.244799999520183 ], [ 4975761.055700000375509, 2199304.879300000146031 ], [ 4975724.40500000026077, 2199287.175499999895692 ], [ 4975689.830699999816716, 2199263.403300000354648 ], [ 4975659.7176, 2199237.064799999818206 ], [ 4975633.889499999582767, 2199204.9233 ], [ 4975607.454900000244379, 2199174.371600000187755 ], [ 4975575.5131, 2199153.121899999678135 ], [ 4975537.820299999788404, 2199139.086799999698997 ], [ 4975497.341, 2199130.751800000667572 ], [ 4975456.803899999707937, 2199128.74129999987781 ], [ 4975417.706299999728799, 2199132.432700000703335 ], [ 4975378.474100000225008, 2199138.902000000700355 ], [ 4975339.216300000436604, 2199147.599300000816584 ], [ 4975300.131699999794364, 2199158.11460000090301 ], [ 4975261.449500000104308, 2199170.027899999171495 ], [ 4975223.378499999642372, 2199182.909099999815226 ], [ 4975186.3399, 2199197.456900000572205 ], [ 4975151.079400000162423, 2199217.066700000315905 ], [ 4975116.6321, 2199238.802999999374151 ], [ 4975081.892, 2199258.931399999186397 ], [ 4975045.70299999974668, 2199273.717299999669194 ], [ 4975006.789200000464916, 2199279.5066 ], [ 4974966.10329999960959, 2199278.095799999311566 ], [ 4974925.71129999961704, 2199273.697000000625849 ], [ 4974885.867499999701977, 2199268.627900000661612 ], [ 4974846.049700000323355, 2199261.4507 ], [ 4974807.48450000025332, 2199250.934000000357628 ], [ 4974771.854299999773502, 2199234.067500000819564 ], [ 4974740.320600000210106, 2199206.832399999722838 ], [ 4974708.185700000263751, 2199183.894600000232458 ], [ 4974670.6535, 2199180.689300000667572 ], [ 4974630.130900000222027, 2199191.60700000077486 ], [ 4974591.225200000219047, 2199201.612600000575185 ], [ 4974552.289200000464916, 2199211.538100000470877 ], [ 4974513.684999999590218, 2199222.482200000435114 ], [ 4974475.913800000213087, 2199235.382799999788404 ], [ 4974439.507000000216067, 2199251.238299999386072 ], [ 4974404.775899999774992, 2199270.8871 ], [ 4974371.028199999593198, 2199292.771999999880791 ], [ 4974337.3909, 2199314.886399999260902 ], [ 4974302.990799999795854, 2199335.233999999240041 ], [ 4974266.98589999973774, 2199352.2676 ], [ 4974229.281499999575317, 2199368.765000000596046 ], [ 4974190.513899999670684, 2199383.126299999654293 ], [ 4974151.3865, 2199392.183000000193715 ], [ 4974112.572700000368059, 2199392.8267 ], [ 4974074.057099999859929, 2199387.44539999961853 ], [ 4974035.536600000225008, 2199379.586200000718236 ], [ 4973997.002500000409782, 2199369.728900000452995 ], [ 4973958.475499999709427, 2199358.392899999395013 ], [ 4973919.9265, 2199346.057800000533462 ], [ 4973881.386699999682605, 2199333.243100000545382 ], [ 4973842.846800000406802, 2199320.438400000333786 ], [ 4973804.308000000193715, 2199308.153300000354648 ], [ 4973765.770999999716878, 2199296.877299999818206 ], [ 4973795.216900000348687, 2199324.186300000175834 ], [ 4973821.480499999597669, 2199354.07909999974072 ], [ 4973845.651600000448525, 2199386.91330000013113 ], [ 4973866.479000000283122, 2199421.442299999296665 ], [ 4973878.3586, 2199458.186499999836087 ], [ 4973876.677299999631941, 2199498.423499999567866 ], [ 4973875.515999999828637, 2199538.95920000039041 ], [ 4973882.445899999700487, 2199578.720200000330806 ], [ 4973893.670400000177324, 2199617.653699999675155 ], [ 4973911.881099999882281, 2199652.68720000050962 ], [ 4973934.637400000356138, 2199687.572300000116229 ], [ 4973960.926099999807775, 2199720.082599999383092 ], [ 4973991.057400000281632, 2199745.3421 ], [ 4974025.814899999648333, 2199760.352 ], [ 4974065.515599999576807, 2199768.988099999725819 ], [ 4974107.453200000338256, 2199771.715399999171495 ], [ 4974148.699900000356138, 2199768.509199999272823 ], [ 4974186.737800000235438, 2199759.244699999690056 ], [ 4974222.855100000277162, 2199743.509600000455976 ], [ 4974258.084800000302494, 2199723.410199999809265 ], [ 4974292.951299999840558, 2199701.4232 ], [ 4974327.96889999974519, 2199680.065400000661612 ], [ 4974363.6617, 2199661.833499999716878 ], [ 4974400.534400000236928, 2199649.224199999123812 ], [ 4974439.030399999581277, 2199644.364700000733137 ], [ 4974478.837000000290573, 2199645.677300000563264 ], [ 4974519.359299999661744, 2199650.275499999523163 ], [ 4974560.0422, 2199655.27309999987483 ], [ 4974600.320600000210106, 2199657.783700000494719 ], [ 4974641.080500000156462, 2199656.057099999859929 ], [ 4974682.456000000238419, 2199652.291300000622869 ], [ 4974723.363699999637902, 2199649.495400000363588 ], [ 4974762.740500000305474, 2199650.718900000676513 ], [ 4974799.5532, 2199658.990800000727177 ], [ 4974834.546699999831617, 2199677.337300000712276 ], [ 4974866.878700000233948, 2199704.031199999153614 ], [ 4974894.254700000397861, 2199735.720200000330806 ], [ 4974914.510800000280142, 2199769.301000000908971 ], [ 4974928.4978, 2199805.6414 ], [ 4974938.41330000013113, 2199844.50730000063777 ], [ 4974946.1732, 2199884.66609999909997 ], [ 4974953.693599999882281, 2199924.895500000566244 ], [ 4974962.321600000374019, 2199964.443199999630451 ], [ 4974967.029799999669194, 2200007.465299999341369 ], [ 4974971.7177, 2200050.267699999734759 ], [ 4974983.536399999633431, 2200086.462300000712276 ], [ 4975008.3509, 2200110.952600000426173 ], [ 4975042.412399999797344, 2200127.822100000455976 ], [ 4975082.009399999864399, 2200139.675499999895692 ], [ 4975124.088000000454485, 2200148.33699999935925 ], [ 4975165.6245, 2200155.620699999853969 ], [ 4975205.127600000239909, 2200160.220799999311566 ], [ 4975245.565499999560416, 2200157.29590000025928 ], [ 4975285.6573, 2200156.289899999275804 ], [ 4975325.195899999700487, 2200163.807399999350309 ], [ 4975366.1288, 2200174.189500000327826 ], [ 4975405.588499999605119, 2200187.41190000064671 ], [ 4975440.438799999654293, 2200204.019999999552965 ], [ 4975461.0822, 2200231.175899999216199 ], [ 4975452.313699999824166, 2200274.723300000652671 ], [ 4975438.528599999845028, 2200312.485600000247359 ], [ 4975422.245199999772012, 2200350.002900000661612 ], [ 4975402.4304, 2200385.039200000464916 ], [ 4975377.730499999597669, 2200415.229299999773502 ], [ 4975345.144799999892712, 2200438.5307 ], [ 4975308.926199999637902, 2200458.701999999582767 ], [ 4975275.198800000362098, 2200480.666799999773502 ], [ 4975248.600399999879301, 2200510.640799999237061 ], [ 4975227.7412, 2200553.352099999785423 ], [ 4975224.982900000177324, 2200589.4748 ], [ 4975250.441999999806285, 2200606.17090000025928 ], [ 4975293.65610000025481, 2200613.011800000444055 ], [ 4975339.121899999678135, 2200616.63120000064373 ], [ 4975379.54590000025928, 2200622.148700000718236 ], [ 4975420.517400000244379, 2200626.576099999248981 ], [ 4975459.86710000038147, 2200624.132799999788404 ], [ 4975496.299700000323355, 2200611.41440000012517 ], [ 4975531.542899999767542, 2200593.183199999853969 ], [ 4975565.800099999643862, 2200571.3772 ], [ 4975599.0943, 2200547.634800000116229 ], [ 4975631.478900000452995, 2200523.564500000327826 ], [ 4975661.940700000151992, 2200497.219900000840425 ], [ 4975690.5987, 2200467.9814 ], [ 4975719.087600000202656, 2200439.102900000289083 ], [ 4975749.012000000104308, 2200413.838400000706315 ], [ 4975784.0833, 2200399.783800000324845 ], [ 4975825.805499999783933, 2200404.989 ], [ 4975864.5521, 2200416.314400000497699 ], [ 4975902.906600000336766, 2200431.5471 ], [ 4975941.1425, 2200442.234099999070168 ], [ 4975979.384999999776483, 2200440.772099999710917 ], [ 4976017.408300000242889, 2200429.17960000038147 ], [ 4976055.413599999621511, 2200413.401000000536442 ], [ 4976093.691599999554455, 2200399.14049999974668 ], [ 4976132.5526, 2200392.012399999424815 ], [ 4976173.1409, 2200389.456900000572205 ], [ 4976215.080799999646842, 2200388.377399999648333 ], [ 4976256.965699999593198, 2200389.8257 ], [ 4976297.378600000403821, 2200394.843699999153614 ], [ 4976334.943099999800324, 2200404.492900000885129 ], [ 4976368.16330000013113, 2200420.344799999147654 ], [ 4976395.878899999894202, 2200446.807600000873208 ], [ 4976419.2335, 2200481.051699999719858 ], [ 4976439.717000000178814, 2200518.628399999812245 ], [ 4976458.799700000323355, 2200555.138599999248981 ], [ 4976475.125799999572337, 2200592.123800000175834 ], [ 4976488.469100000336766, 2200631.4024 ], [ 4976500.674800000153482, 2200671.402699999511242 ], [ 4976513.588100000284612, 2200710.542500000447035 ], [ 4976529.064600000157952, 2200747.249399999156594 ], [ 4976548.9392, 2200779.941700000315905 ], [ 4976574.728799999691546, 2200807.507099999114871 ], [ 4976604.6096, 2200832.517000000923872 ], [ 4976637.484000000171363, 2200855.583000000566244 ], [ 4976672.74239999987185, 2200876.596300000324845 ], [ 4976709.744900000281632, 2200895.428099999204278 ], [ 4976747.8821, 2200911.999800000339746 ], [ 4976786.5143, 2200926.172800000756979 ], [ 4976825.041600000113249, 2200937.858200000599027 ], [ 4976863.0938, 2200946.567299999296665 ], [ 4976902.145399999804795, 2200950.238900000229478 ], [ 4976942.197999999858439, 2200949.772399999201298 ], [ 4976982.895100000314415, 2200946.667199999094009 ], [ 4977023.869699999690056, 2200942.4024 ], [ 4977064.775000000372529, 2200938.467499999329448 ], [ 4977105.2341, 2200936.351700000464916 ], [ 4977144.8903, 2200937.54450000077486 ], [ 4977183.386800000444055, 2200943.545099999755621 ], [ 4977220.346400000154972, 2200955.603199999779463 ], [ 4977256.01659999974072, 2200972.6392 ], [ 4977290.903699999675155, 2200992.913799999281764 ], [ 4977325.494, 2201014.657500000670552 ], [ 4977360.293600000441074, 2201036.101199999451637 ], [ 4977395.798499999567866, 2201055.495400000363588 ], [ 4977432.41579999960959, 2201071.4206000007689 ], [ 4977469.9079, 2201085.156099999323487 ], [ 4977507.9572, 2201097.6217 ], [ 4977546.285000000149012, 2201109.427300000563264 ], [ 4977584.622600000351667, 2201121.183000000193715 ], [ 4977622.7017, 2201133.5186 ], [ 4977660.253499999642372, 2201147.044299999251962 ], [ 4977697.009399999864399, 2201162.3597 ], [ 4977733.807099999859929, 2201178.614199999719858 ], [ 4977770.865299999713898, 2201195.307800000533462 ], [ 4977807.605700000189245, 2201212.89130000025034 ], [ 4977843.4392, 2201231.7752 ], [ 4977877.78760000038892, 2201252.420399999246001 ], [ 4977910.0521, 2201275.25760000012815 ], [ 4977939.63399999961257, 2201300.747600000351667 ], [ 4977965.676699999719858, 2201330.120699999853969 ], [ 4977988.778400000184774, 2201362.806500000879169 ], [ 4978010.055700000375509, 2201397.524000000208616 ], [ 4978030.595099999569356, 2201433.012199999764562 ], [ 4978051.5132, 2201467.970100000500679 ], [ 4978073.896499999798834, 2201501.126900000497699 ], [ 4978098.85149999987334, 2201531.201400000602007 ], [ 4978131.813699999824166, 2201553.178099999204278 ], [ 4978171.650600000284612, 2201565.240499999374151 ], [ 4978211.194299999624491, 2201570.349899999797344 ], [ 4978250.96860000025481, 2201570.653100000694394 ], [ 4978291.1979, 2201568.5778 ], [ 4978331.507299999706447, 2201566.622099999338388 ], [ 4978371.521999999880791, 2201567.29450000077486 ], [ 4978411.771999999880791, 2201570.754100000485778 ], [ 4978453.4397, 2201573.801200000569224 ], [ 4978495.020100000314415, 2201578.157299999147654 ], [ 4978534.908300000242889, 2201585.773700000718236 ], [ 4978571.519500000402331, 2201598.591600000858307 ], [ 4978603.598000000230968, 2201618.291999999433756 ], [ 4978633.299200000241399, 2201643.381999999284744 ], [ 4978661.149500000290573, 2201672.471799999475479 ], [ 4978686.927899999544024, 2201704.662900000810623 ], [ 4978710.422500000335276, 2201739.0263 ], [ 4978731.411799999885261, 2201774.643400000408292 ], [ 4978749.664300000295043, 2201810.615499999374151 ], [ 4978765.2994, 2201846.762299999594688 ], [ 4978778.958200000226498, 2201883.862199999392033 ], [ 4978791.04, 2201921.7643 ], [ 4978801.924200000241399, 2201960.288200000301003 ], [ 4978811.979899999685585, 2201999.223200000822544 ], [ 4978821.596400000154972, 2202038.408900000154972 ], [ 4978831.133100000210106, 2202077.644600000232458 ], [ 4978840.989400000311434, 2202116.7599 ], [ 4978851.524400000460446, 2202155.554099999368191 ], [ 4978863.127399999648333, 2202193.846799999475479 ], [ 4978876.177799999713898, 2202231.457299999892712 ], [ 4978891.437400000169873, 2202269.703099999576807 ], [ 4978910.221800000406802, 2202306.922900000587106 ], [ 4978933.7725, 2202339.247899999842048 ], [ 4978963.222099999897182, 2202363.409199999645352 ], [ 4978997.627899999730289, 2202382.825200000777841 ], [ 4979035.343999999575317, 2202398.718100000172853 ], [ 4979074.941200000233948, 2202410.910800000652671 ], [ 4979114.9507, 2202419.266100000590086 ], [ 4979154.183299999684095, 2202423.686599999666214 ], [ 4979193.5894, 2202424.829700000584126 ], [ 4979233.370299999602139, 2202423.454500000923872 ], [ 4979273.40749999973923, 2202420.280300000682473 ], [ 4979313.572599999606609, 2202416.006899999454618 ], [ 4979353.766800000332296, 2202411.363800000399351 ], [ 4979393.861700000241399, 2202407.0406 ], [ 4979433.75829999987036, 2202403.447200000286102 ], [ 4979473.691599999554455, 2202398.1952 ], [ 4979513.652800000272691, 2202391.903999999165535 ], [ 4979553.525399999693036, 2202386.212600000202656 ], [ 4979593.202399999834597, 2202382.769300000742078 ], [ 4979632.567099999636412, 2202383.183199999853969 ], [ 4979671.4825, 2202388.972999999299645 ], [ 4979709.966900000348687, 2202399.229499999433756 ], [ 4979748.266200000420213, 2202411.864299999549985 ], [ 4979786.61600000038743, 2202424.828600000590086 ], [ 4979825.222, 2202436.0241 ], [ 4979865.115500000305474, 2202446.437699999660254 ], [ 4979906.721199999563396, 2202458.86629999987781 ], [ 4979947.983900000341237, 2202469.5471 ], [ 4979986.788099999539554, 2202474.5877 ], [ 4980021.077600000426173, 2202469.9561 ], [ 4980053.647699999623001, 2202443.97719999961555 ], [ 4980077.806800000369549, 2202403.0482 ] ] ] ] } }
]
}
