{
"type": "FeatureCollection",
"name": "Clase V, limitaciones hídricas y de suelo",
"crs": { "type": "name", "properties": { "name": "urn:ogc:def:crs:OGC:1.3:CRS84" } },
"features": [
{ "type": "Feature", "properties": { "OBJECTID": 862, "UCS_CP": "Vhs1", "CLASE": "V", "SUBCLASE": "hs", "GRUPO_MANEJO": "1", "UCS": "VMBa, MHHa", "PRINCIPALES_CARACTERÍSTICAS": "Clima frío seco y clima muy frío húmedo que se encuentra principalmente en los valles de los ríos Chica mocha y Suárez. La topografía es plana con pendientes menores de 3%", "PRINCIPALES_LIMITANTES": "Encharcabilidad, exceso temporal de humedad, suelos superﬁciales", "USO_ACTUAL": "Ganadería semi-intensiva con pastos naturales, pequeñas áreas con cultivos de arveja, maíz, hortalizas", "USOS_RECOMENDADOS": "Cultivos de hortalizas, maíz; ganadería semi-intensiva", "PRACTICAS_MANEJO": "Aplicar correctivos y fertilizantes; establecer sistema de drenaje. En ganadería hacer rotación de potreros", "ÁREA_HA_1": 156.97535199021453, "Shape_Length": 9710.5454902495949, "Shape_Area": 1569753.5199021453 }, "geometry": { "type": "MultiPolygon", "coordinates": [ [ [ [ -73.168409878275639, 5.806780424530206 ], [ -73.168132459246877, 5.806549233373624 ], [ -73.167839028497212, 5.80633799838244 ], [ -73.167543970942404, 5.806128206277932 ], [ -73.167261668115643, 5.805902070523291 ], [ -73.166987150379327, 5.805663830704201 ], [ -73.166714804307631, 5.805422519449065 ], [ -73.166439741022103, 5.805186629784608 ], [ -73.166156891810971, 5.804964651161373 ], [ -73.165858388362111, 5.804764617722535 ], [ -73.165514859220934, 5.804606012666776 ], [ -73.165163208655073, 5.804556888145668 ], [ -73.164821012428206, 5.804633819477597 ], [ -73.164479877324723, 5.804780552707958 ], [ -73.164159171378401, 5.804967825480028 ], [ -73.16387326913096, 5.805181646032127 ], [ -73.163612133962175, 5.805431584042426 ], [ -73.163361356897624, 5.805697089416689 ], [ -73.16310742713803, 5.805957436205595 ], [ -73.1628693330141, 5.806251171805901 ], [ -73.162583017053947, 5.806441121647516 ], [ -73.162231057756486, 5.806525901484251 ], [ -73.161858313152564, 5.80656724629507 ], [ -73.16149215385029, 5.806556612289273 ], [ -73.161155002439685, 5.806473693099427 ], [ -73.160840497858715, 5.806288098972935 ], [ -73.160545295263887, 5.80605823035017 ], [ -73.160262378316432, 5.805823681058766 ], [ -73.160014911586572, 5.805552029378528 ], [ -73.159882138495092, 5.805201902738061 ], [ -73.159988067763123, 5.80490641476251 ], [ -73.160361240790053, 5.804932612829194 ], [ -73.160747700020252, 5.804895177434167 ], [ -73.161156362884, 5.80480542933619 ], [ -73.161419708647898, 5.804639403127761 ], [ -73.161420394625409, 5.804328552734331 ], [ -73.161257068138198, 5.80394618827867 ], [ -73.161022452379001, 5.803655570039636 ], [ -73.160707390312169, 5.803480371637206 ], [ -73.160350198940748, 5.803342175847258 ], [ -73.160029526131268, 5.803174924520053 ], [ -73.159816816548897, 5.802904685517603 ], [ -73.159722268665647, 5.802531926679772 ], [ -73.159734145834108, 5.802168564238611 ], [ -73.159901837058683, 5.801809795900674 ], [ -73.16020295397368, 5.801677375716931 ], [ -73.160569388551636, 5.801627702460896 ], [ -73.160955507377238, 5.801631044440424 ], [ -73.161319412796786, 5.801693392872581 ], [ -73.161622057153778, 5.801842801190679 ], [ -73.16187205824437, 5.802110207065333 ], [ -73.162115155965935, 5.802403370110413 ], [ -73.162397185286423, 5.802627880556557 ], [ -73.162731501300755, 5.802788281213209 ], [ -73.163084809676064, 5.802872040138986 ], [ -73.163436919573712, 5.802860406166933 ], [ -73.163794997202501, 5.802786757139193 ], [ -73.164148071985139, 5.802681001855375 ], [ -73.164486463115679, 5.802555059235444 ], [ -73.164814257980026, 5.802394379384495 ], [ -73.165141058021391, 5.802234602825265 ], [ -73.165476461104731, 5.80211435111776 ], [ -73.165868048070863, 5.802142473287421 ], [ -73.166220490511847, 5.802148198960595 ], [ -73.166452656369373, 5.801889261784341 ], [ -73.166647016512528, 5.801505850609489 ], [ -73.16671893039252, 5.801138063117736 ], [ -73.16658940261452, 5.80090105359962 ], [ -73.166289737273971, 5.800750205419961 ], [ -73.165904252224905, 5.800634390233855 ], [ -73.165515617830977, 5.800511154725783 ], [ -73.165204553060818, 5.800320776303953 ], [ -73.16493600881455, 5.800075041128195 ], [ -73.16460291724357, 5.799939237385184 ], [ -73.164251636397324, 5.79983034880671 ], [ -73.163895326015421, 5.799761867772395 ], [ -73.163541620170562, 5.799756861351246 ], [ -73.16318444408428, 5.799832500907984 ], [ -73.162834887624697, 5.799940884466563 ], [ -73.162510842239215, 5.800128331900288 ], [ -73.162173900242919, 5.800196137699246 ], [ -73.161832995103524, 5.800036541268126 ], [ -73.161760262691885, 5.799682895490517 ], [ -73.161927237243404, 5.799375119753037 ], [ -73.162213263841664, 5.799138966645075 ], [ -73.162528822703834, 5.798951053035654 ], [ -73.162875122841584, 5.798845739459668 ], [ -73.163215947697523, 5.798721247648586 ], [ -73.16353158582541, 5.798484238279969 ], [ -73.163841710593402, 5.798306441584112 ], [ -73.164155715197651, 5.79835333538067 ], [ -73.16447052966663, 5.79851315973569 ], [ -73.164785621549157, 5.798725335195631 ], [ -73.165100706662258, 5.798941399246396 ], [ -73.165414299876915, 5.799131781543114 ], [ -73.165723168816484, 5.799339607954476 ], [ -73.166037679542441, 5.799520407514284 ], [ -73.16636948238714, 5.799615339317175 ], [ -73.166724598477671, 5.799585807063595 ], [ -73.167090439192577, 5.799511715707982 ], [ -73.167454486101505, 5.799486626613549 ], [ -73.167834393115115, 5.799478923910434 ], [ -73.168198242609208, 5.799519748037607 ], [ -73.168503684701918, 5.799670784452581 ], [ -73.168781742971632, 5.799896099240127 ], [ -73.169040773771613, 5.800163788802505 ], [ -73.169272948922909, 5.800458378248925 ], [ -73.169470257745544, 5.800764666063886 ], [ -73.169604976568863, 5.801087580155501 ], [ -73.169664793938296, 5.801447171750064 ], [ -73.169709068220016, 5.801816322948588 ], [ -73.169796252057907, 5.802169538751109 ], [ -73.169924683015566, 5.802528518742124 ], [ -73.170119663601895, 5.802823499947613 ], [ -73.170418755345551, 5.802995231714088 ], [ -73.170783969897542, 5.803087050254995 ], [ -73.171150899176865, 5.803123357352887 ], [ -73.171512434073094, 5.803145549709058 ], [ -73.17187785791846, 5.80316377043185 ], [ -73.172244737224659, 5.80317503195596 ], [ -73.172610910487549, 5.80317634392466 ], [ -73.172973944260008, 5.803164904309463 ], [ -73.17333158663277, 5.80313763138873 ], [ -73.173681584871332, 5.803091720375718 ], [ -73.174015714863643, 5.802976616183959 ], [ -73.174318417190747, 5.802755039591094 ], [ -73.174580369397916, 5.8024988592986 ], [ -73.174713714722245, 5.802159378385936 ], [ -73.17490909672965, 5.801866923611781 ], [ -73.175220783134691, 5.801672487339282 ], [ -73.175542632442983, 5.801501483537512 ], [ -73.17587653036702, 5.801362055666058 ], [ -73.176257443765067, 5.801347476230986 ], [ -73.176590420912049, 5.801331011911128 ], [ -73.176670102001594, 5.801014862731773 ], [ -73.176686992571319, 5.800614073438552 ], [ -73.176779471705657, 5.800254816168378 ], [ -73.176913814428218, 5.799911811302965 ], [ -73.177153215967195, 5.799641034796639 ], [ -73.177510056328998, 5.799492961531731 ], [ -73.177753053957133, 5.799684492045933 ], [ -73.177951005255665, 5.80004367181551 ], [ -73.178227692895859, 5.800225761456412 ], [ -73.178617851035938, 5.800244740242722 ], [ -73.178983652176711, 5.8001382713383 ], [ -73.179217666691741, 5.799906004192059 ], [ -73.179395369680222, 5.799601765052947 ], [ -73.179547404649057, 5.79925914857972 ], [ -73.179698456832952, 5.798909658026531 ], [ -73.179872762225258, 5.798584437481392 ], [ -73.180068107423594, 5.798256536835683 ], [ -73.180290406113528, 5.79795291131343 ], [ -73.180571641123436, 5.79777325051846 ], [ -73.18090883555405, 5.797716011388538 ], [ -73.181276264872722, 5.797720395348884 ], [ -73.182001419480272, 5.797757265807878 ], [ -73.182346519601595, 5.79789452508818 ], [ -73.182689992954352, 5.798033318645806 ], [ -73.182970620891311, 5.798235213251712 ], [ -73.183192154184155, 5.798527611069344 ], [ -73.183361426681032, 5.798870470204798 ], [ -73.18344429299195, 5.7992187058089 ], [ -73.18341610956422, 5.799570291477219 ], [ -73.183291040726672, 5.799931486997218 ], [ -73.183091838976679, 5.800244373341656 ], [ -73.182842999137591, 5.800490271548419 ], [ -73.182562960775073, 5.800711799116448 ], [ -73.182262543147004, 5.800917832338881 ], [ -73.181952296876602, 5.801116434928053 ], [ -73.181642952466859, 5.801315852464655 ], [ -73.181344699059352, 5.801524058322128 ], [ -73.18104103247515, 5.801728729939073 ], [ -73.180733488323867, 5.801930952811906 ], [ -73.180442445474824, 5.802145680024656 ], [ -73.1801877406795, 5.8023880413487 ], [ -73.179992300799839, 5.802717750242138 ], [ -73.17993323384448, 5.803073082318402 ], [ -73.180068788077818, 5.803385597741729 ], [ -73.180319122264223, 5.803677139465909 ], [ -73.180591924940416, 5.803918625797792 ], [ -73.180902283153245, 5.804104564891432 ], [ -73.181219693445414, 5.804284639888251 ], [ -73.181538519973273, 5.80448180419174 ], [ -73.181852818013326, 5.804688365432623 ], [ -73.182055441613016, 5.804950986226766 ], [ -73.182091526514824, 5.805308912320699 ], [ -73.182035039249783, 5.805688391730843 ], [ -73.181938113717194, 5.806063375453373 ], [ -73.18174651657894, 5.806361264020595 ], [ -73.181428612818124, 5.806433723253171 ], [ -73.181044073176096, 5.806398930842382 ], [ -73.18067000794467, 5.806362347454961 ], [ -73.180285616070478, 5.806291842426358 ], [ -73.179906724699379, 5.806224147206515 ], [ -73.179570242299761, 5.806229034341936 ], [ -73.179340008167799, 5.806410312069962 ], [ -73.17923160333109, 5.806792872026178 ], [ -73.179063598430588, 5.807127867046324 ], [ -73.178786554668221, 5.807392886911552 ], [ -73.17846796352039, 5.80761299303841 ], [ -73.178142533182324, 5.807705871354178 ], [ -73.177823779195364, 5.8076328471035 ], [ -73.177500310964831, 5.807458638333615 ], [ -73.177171383600367, 5.807254041308543 ], [ -73.176836343456301, 5.807090302051463 ], [ -73.176494733108171, 5.806969951971666 ], [ -73.176147873826523, 5.806858816178133 ], [ -73.175797193805806, 5.806764220162925 ], [ -73.175443949557533, 5.806693579070144 ], [ -73.175086325136803, 5.806651141511681 ], [ -73.174714942853157, 5.806632008918036 ], [ -73.174344678048314, 5.806647056544012 ], [ -73.173993206140906, 5.806709239408844 ], [ -73.173664819251059, 5.806844878052377 ], [ -73.173356130134465, 5.807082537052779 ], [ -73.173138087992953, 5.807372694132392 ], [ -73.173101549126557, 5.80769442702411 ], [ -73.173206312357834, 5.808064127601213 ], [ -73.173269637589641, 5.808433941307364 ], [ -73.173312254167314, 5.808824338251455 ], [ -73.173324459990795, 5.809206818553316 ], [ -73.173229161217989, 5.809520410002228 ], [ -73.172992976514934, 5.80975104374067 ], [ -73.172668663957694, 5.809934155807412 ], [ -73.172304242924142, 5.810075250081224 ], [ -73.171947646106133, 5.810179829664603 ], [ -73.171584426961402, 5.810247597593277 ], [ -73.17120648901728, 5.810260911590354 ], [ -73.170854041708026, 5.81019867848102 ], [ -73.170543724349002, 5.810044287507476 ], [ -73.170252940665506, 5.809812984777477 ], [ -73.169998619077461, 5.809533278045024 ], [ -73.169799944076985, 5.809232955847945 ], [ -73.169668939834253, 5.808901277758114 ], [ -73.169578875418765, 5.808543354214464 ], [ -73.169493962566634, 5.808181733098146 ], [ -73.169378414918796, 5.80783904914387 ], [ -73.169199607226446, 5.807535323381719 ], [ -73.168962062691165, 5.807265949776586 ], [ -73.168690538156412, 5.807018312455607 ], [ -73.168409878275639, 5.806780424530206 ] ] ] ] } }
]
}
