{
"type": "FeatureCollection",
"name": "Clase VI, limitaciones por clima y suelo",
"features": [
{ "type": "Feature", "properties": { "OBJECTID": 479, "UCS_CP": "VIIcs1", "CLASE": "VII", "SUBCLASE": "cs", "GRUPO_MANEJO": "1", "UCS": "MHVd, MHVe, MHVep, MHVf", "PRINCIPALES_CARACTERÍSTICAS": "Se ubican en zonas muy frías y muy húmedas con temperaturas inferiores a 8°C y pendientes moderadas a fuertes; la zona de exploración por las raíces es superficial y muy superficial y la fertilidad baja", "PRINCIPALES_LIMITANTES": "Heladas, pendientes moderadas y fuertes, pedregosidad superﬁcial sectorizada, niveles muy altos de aluminio", "USO_ACTUAL": "Cultivos de papa, hortalizas, maíz; ganadería extensiva con pastos naturales y mejorados", "USOS_RECOMENDADOS": "Cultivos de papa en las zonas con pendientes <25%, bosques y desarrollo de vegetación natural en áreas de altitud superior a 3.400 m", "PRACTICAS_MANEJO": "Utilizar correctivos y fertilizantes en las áreas de menor pendiente; sembrar en fajas en contorno; en ganadería hacer rotación de potreros y utilizar bajas cargas para evitar erosión", "ÁREA_HA_1": 971.71823615221024, "Shape_Length": 20578.48840844848, "Shape_Area": 9717182.3615221027 }, "geometry": { "type": "MultiPolygon", "coordinates": [ [ [ [ 4985175.612599999643862, 2203973.574799999594688 ], [ 4985178.321999999694526, 2203930.494999999180436 ], [ 4985189.782800000160933, 2203886.382999999448657 ], [ 4985201.1519, 2203853.766100000590086 ], [ 4985207.7697, 2203805.527499999850988 ], [ 4985208.839999999850988, 2203797.151399999856949 ], [ 4985222.308600000105798, 2203760.220599999651313 ], [ 4985236.7012, 2203734.9679000005126 ], [ 4985246.823699999600649, 2203711.83420000039041 ], [ 4985252.6864, 2203687.753100000321865 ], [ 4985254.704400000162423, 2203652.469499999657273 ], [ 4985251.782599999569356, 2203624.146999999880791 ], [ 4985242.179100000299513, 2203600.616800000891089 ], [ 4985224.103699999861419, 2203572.474700000137091 ], [ 4985204.275899999774992, 2203546.466600000858307 ], [ 4985185.898, 2203523.995899999514222 ], [ 4985167.695299999788404, 2203502.306900000199676 ], [ 4985163.6831, 2203494.494000000879169 ], [ 4985154.872399999760091, 2203476.610500000417233 ], [ 4985151.446700000204146, 2203457.326400000602007 ], [ 4985149.604899999685585, 2203448.466499999165535 ], [ 4985149.298100000247359, 2203424.396999999880791 ], [ 4985149.164099999703467, 2203399.8059 ], [ 4985151.123800000175834, 2203379.468499999493361 ], [ 4985156.20920000039041, 2203357.821699999272823 ], [ 4985162.1612, 2203334.956800000742078 ], [ 4985171.971400000154972, 2203284.886600000783801 ], [ 4985180.085900000296533, 2203256.80350000038743 ], [ 4985195.1749, 2203208.149299999698997 ], [ 4985205.749900000169873, 2203166.297800000756979 ], [ 4985209.5027, 2203144.652200000360608 ], [ 4985211.460799999535084, 2203123.532800000160933 ], [ 4985212.565000000409782, 2203110.2357 ], [ 4985226.1097999997437, 2203059.115299999713898 ], [ 4985235.886599999852479, 2203036.938300000503659 ], [ 4985246.0949, 2203013.19649999961257 ], [ 4985262.02419999986887, 2202972.955700000748038 ], [ 4985266.594700000248849, 2202964.409700000658631 ], [ 4985271.0987, 2202954.330800000578165 ], [ 4985277.767, 2202944.401699999347329 ], [ 4985295.5691, 2202893.012399999424815 ], [ 4985302.807500000111759, 2202861.194900000467896 ], [ 4985303.905299999751151, 2202846.098300000652671 ], [ 4985305.116399999707937, 2202829.072799999266863 ], [ 4985310.181200000457466, 2202811.761499999091029 ], [ 4985322.9572, 2202787.792300000786781 ], [ 4985341.896499999798834, 2202755.4695999994874 ], [ 4985352.1168, 2202723.280799999833107 ], [ 4985353.5773, 2202716.845499999821186 ], [ 4985350.355600000359118, 2202686.546599999070168 ], [ 4985342.06940000038594, 2202661.845799999311566 ], [ 4985324.967199999839067, 2202622.605699999257922 ], [ 4985310.567699999548495, 2202575.821000000461936 ], [ 4985264.812699999660254, 2202473.755200000479817 ], [ 4985257.0777000002563, 2202430.912100000306964 ], [ 4985235.463200000114739, 2202359.36089999973774 ], [ 4985199.521099999547005, 2202283.064099999144673 ], [ 4985142.0329, 2202171.012000000104308 ], [ 4985101.2632, 2202066.087300000712276 ], [ 4985065.289300000295043, 2201973.08559999987483 ], [ 4985003.010099999606609, 2201851.497099999338388 ], [ 4984962.227, 2201739.413100000470877 ], [ 4984945.394500000402331, 2201672.625499999150634 ], [ 4984892.912499999627471, 2201573.437400000169873 ], [ 4984867.879800000227988, 2201417.823999999091029 ], [ 4984791.1442, 2201223.874299999326468 ], [ 4984667.278400000184774, 2201103.647199999541044 ], [ 4984556.4474, 2201003.590600000694394 ], [ 4984473.2632, 2200896.566500000655651 ], [ 4984431.615000000223517, 2200813.66579999960959 ], [ 4984386.5291, 2200741.144300000742078 ], [ 4984384.444789343513548, 2200738.052045526448637 ], [ 4984377.687300000339746, 2200772.2226 ], [ 4984353.677400000393391, 2200802.380599999800324 ], [ 4984322.859000000171363, 2200829.9441 ], [ 4984288.397099999710917, 2200853.867900000885129 ], [ 4984252.765800000168383, 2200872.409099999815226 ], [ 4984215.976599999703467, 2200881.031700000166893 ], [ 4984174.673999999649823, 2200870.07120000012219 ], [ 4984142.030899999663234, 2200847.424900000914931 ], [ 4984117.78249999973923, 2200815.690999999642372 ], [ 4984095.216900000348687, 2200781.01659999974072 ], [ 4984068.664300000295043, 2200751.155300000682473 ], [ 4984036.4605, 2200728.388299999758601 ], [ 4984002.970599999651313, 2200706.9825 ], [ 4983968.493700000457466, 2200686.677500000223517 ], [ 4983933.24930000025779, 2200667.333200000226498 ], [ 4983897.457100000232458, 2200648.81900000013411 ], [ 4983861.356499999761581, 2200630.974899999797344 ], [ 4983825.146800000220537, 2200613.650499999523163 ], [ 4983788.928299999795854, 2200596.905600000172853 ], [ 4983752.0932, 2200581.590399999171495 ], [ 4983714.730700000189245, 2200567.415300000458956 ], [ 4983677.0597, 2200553.890100000426173 ], [ 4983639.299200000241399, 2200540.535000000149012 ], [ 4983601.68790000025183, 2200526.859899999573827 ], [ 4983564.424700000323355, 2200512.374800000339746 ], [ 4983527.539300000295043, 2200496.900000000372529 ], [ 4983490.1349, 2200481.745799999684095 ], [ 4983452.550699999555945, 2200466.582000000402331 ], [ 4983415.324900000356138, 2200450.747999999672174 ], [ 4983379.0356, 2200433.60359999909997 ], [ 4983344.2412, 2200414.468100000172853 ], [ 4983311.509800000116229, 2200392.711200000718236 ], [ 4983280.291600000113249, 2200368.113900000229478 ], [ 4983249.818199999630451, 2200341.207299999892712 ], [ 4983220.64989999961108, 2200312.28999999910593 ], [ 4983193.396499999798834, 2200281.680600000545382 ], [ 4983168.628100000321865, 2200249.697799999266863 ], [ 4983146.954699999652803, 2200216.630100000649691 ], [ 4983128.795300000347197, 2200182.037000000476837 ], [ 4983114.041600000113249, 2200141.732599999755621 ], [ 4983104.2878, 2200098.471400000154972 ], [ 4983101.509800000116229, 2200056.475700000301003 ], [ 4983107.63399999961257, 2200019.93779999949038 ], [ 4983126.924499999731779, 2199992.955900000408292 ], [ 4983161.457000000402331, 2199974.46680000051856 ], [ 4983202.989099999889731, 2199959.111500000581145 ], [ 4983242.958100000396371, 2199941.42119999974966 ], [ 4983273.520899999886751, 2199915.98619999922812 ], [ 4983296.553600000217557, 2199881.573999999091029 ], [ 4983316.63219999987632, 2199843.620699999853969 ], [ 4983337.6047, 2199808.083499999716878 ], [ 4983363.288800000213087, 2199780.939500000327826 ], [ 4983396.380199999548495, 2199766.3596 ], [ 4983434.7643, 2199761.020999999716878 ], [ 4983476.266800000332296, 2199761.511 ], [ 4983504.597398107871413, 2199763.545653438661247 ], [ 4983486.943, 2199753.137399999424815 ], [ 4983407.2138, 2199657.832000000402331 ], [ 4983334.031939710490406, 2199600.556725741829723 ], [ 4983301.8224, 2199617.379000000655651 ], [ 4983267.6036, 2199637.935599999502301 ], [ 4983234.286999999545515, 2199660.108799999579787 ], [ 4983201.511800000444055, 2199683.300100000575185 ], [ 4983169.0472999997437, 2199707.00029999949038 ], [ 4983136.6129, 2199730.730499999597669 ], [ 4983103.947700000368059, 2199753.9715 ], [ 4983070.811099999584258, 2199776.254300000146031 ], [ 4983036.932400000281632, 2199797.060000000521541 ], [ 4983002.050800000317395, 2199815.899299999698997 ], [ 4982965.394799999892712, 2199831.505100000649691 ], [ 4982927.074300000444055, 2199844.046900000423193 ], [ 4982887.801300000399351, 2199854.792300000786781 ], [ 4982848.3174, 2199864.978499999269843 ], [ 4982809.364299999549985, 2199875.843100000172853 ], [ 4982771.66370000038296, 2199888.633500000461936 ], [ 4982735.9474, 2199904.597200000658631 ], [ 4982702.7774, 2199925.051799999549985 ], [ 4982671.91469999961555, 2199950.497500000521541 ], [ 4982643.517199999652803, 2199979.854699999094009 ], [ 4982617.802500000223517, 2200011.944299999624491 ], [ 4982594.998200000263751, 2200045.5669 ], [ 4982574.9923, 2200079.803600000217557 ], [ 4982555.818400000222027, 2200115.457399999722838 ], [ 4982537.696000000461936, 2200152.4079 ], [ 4982521.2939, 2200190.284299999475479 ], [ 4982507.3004, 2200228.685599999502301 ], [ 4982496.394500000402331, 2200267.230799999088049 ], [ 4982489.2544, 2200305.509099999442697 ], [ 4982487.010599999688566, 2200344.0877 ], [ 4982491.545800000429153, 2200385.5307 ], [ 4982502.22620000038296, 2200427.351500000804663 ], [ 4982518.106599999591708, 2200466.514799999073148 ], [ 4982538.262199999764562, 2200500.005100000649691 ], [ 4982564.303100000135601, 2200523.453500000759959 ], [ 4982602.2374, 2200533.591299999505281 ], [ 4982645.7654, 2200537.863800000399351 ], [ 4982687.459499999880791, 2200544.5176 ], [ 4982725.984199999831617, 2200555.1239 ], [ 4982764.330400000326335, 2200566.449899999424815 ], [ 4982802.468000000342727, 2200578.435499999672174 ], [ 4982843.97759999986738, 2200587.7972 ], [ 4982878.408800000324845, 2200605.035199999809265 ], [ 4982898.701100000180304, 2200636.886700000613928 ], [ 4982914.4068, 2200673.532600000500679 ], [ 4982927.8991, 2200712.510600000619888 ], [ 4982941.521200000308454, 2200751.388499999418855 ], [ 4982957.8169, 2200788.302999999374151 ], [ 4982976.719100000336766, 2200824.612999999895692 ], [ 4982992.69469999987632, 2200861.2884 ], [ 4982999.021999999880791, 2200899.4309 ], [ 4982989.5307, 2200941.020600000396371 ], [ 4982981.113599999807775, 2200980.160499999299645 ], [ 4983004.903800000436604, 2201002.1744 ], [ 4983044.3564, 2201017.3445999994874 ], [ 4983079.82079999987036, 2201036.778400000184774 ], [ 4983116.99170000012964, 2201049.9748 ], [ 4983156.8832, 2201054.364099999889731 ], [ 4983197.9364, 2201055.084599999710917 ], [ 4983238.521499999798834, 2201056.47550000064075 ], [ 4983277.018199999816716, 2201062.905500000342727 ], [ 4983313.045300000347197, 2201078.831599999219179 ], [ 4983346.084099999628961, 2201104.564200000837445 ], [ 4983371.361499999649823, 2201136.256300000473857 ], [ 4983387.9638, 2201171.52170000039041 ], [ 4983400.57660000026226, 2201210.3015 ], [ 4983408.866600000299513, 2201250.76799999922514 ], [ 4983412.400700000114739, 2201291.05379999987781 ], [ 4983411.028300000354648, 2201330.759700000286102 ], [ 4983405.184299999848008, 2201372.721899999305606 ], [ 4983394.343000000342727, 2201413.634800000116229 ], [ 4983377.887400000356138, 2201449.653000000864267 ], [ 4983354.042999999597669, 2201477.45299999974668 ], [ 4983317.4753, 2201497.424699999392033 ], [ 4983275.035199999809265, 2201508.1064 ], [ 4983235.600399999879301, 2201507.442700000479817 ], [ 4983199.850399999879301, 2201495.332699999213219 ], [ 4983164.744800000451505, 2201475.488500000908971 ], [ 4983130.091699999757111, 2201451.966900000348687 ], [ 4983095.719200000166893, 2201428.854399999603629 ], [ 4983061.866899999789894, 2201406.120500000193715 ], [ 4983028.867600000463426, 2201380.138000000268221 ], [ 4982995.744, 2201357.063100000843406 ], [ 4982961.239900000393391, 2201343.541899999603629 ], [ 4982915.737599999643862, 2201351.601800000295043 ], [ 4982885.837799999862909, 2201373.718699999153614 ], [ 4982902.8268, 2201402.199699999764562 ], [ 4982933.356800000183284, 2201437.778100000694394 ], [ 4982943.980200000107288, 2201475.88230000063777 ], [ 4982952.127999999560416, 2201515.110400000587106 ], [ 4982958.628700000233948, 2201555.060799999162555 ], [ 4982963.301799999549985, 2201595.314600000157952 ], [ 4982965.9665, 2201635.492200000211596 ], [ 4982966.4424, 2201675.174499999731779 ], [ 4982960.9622, 2201714.079 ], [ 4982948.747399999760091, 2201752.516799999400973 ], [ 4982935.663499999791384, 2201790.976399999111891 ], [ 4982927.645899999886751, 2201829.975600000470877 ], [ 4982927.792600000277162, 2201869.918299999088049 ], [ 4982929.4183, 2201910.087999999523163 ], [ 4982927.7193, 2201951.41300000064075 ], [ 4982916.691700000315905, 2201988.949400000274181 ], [ 4982889.7719, 2202017.644600000232458 ], [ 4982857.972099999897182, 2202044.061300000175834 ], [ 4982822.965300000272691, 2202065.299000000581145 ], [ 4982786.285699999891222, 2202079.006799999624491 ], [ 4982747.938400000333786, 2202087.88230000063777 ], [ 4982708.29619999974966, 2202093.6732 ], [ 4982667.92090000025928, 2202097.517300000414252 ], [ 4982627.384200000204146, 2202100.502399999648333 ], [ 4982587.257500000298023, 2202103.7467 ], [ 4982545.4967, 2202104.016699999570847 ], [ 4982501.810700000263751, 2202100.643899999558926 ], [ 4982459.1053, 2202098.10840000025928 ], [ 4982420.306599999777973, 2202100.910399999469519 ], [ 4982388.300499999895692, 2202113.540200000628829 ], [ 4982362.947200000286102, 2202141.203400000929832 ], [ 4982343.460900000296533, 2202180.54450000077486 ], [ 4982330.966, 2202224.008400000631809 ], [ 4982326.617200000211596, 2202264.079700000584126 ], [ 4982338.541000000201166, 2202297.785599999129772 ], [ 4982373.594600000418723, 2202326.9112 ], [ 4982411.5954, 2202340.405500000342727 ], [ 4982450.144299999810755, 2202327.173599999397993 ], [ 4982489.517199999652803, 2202306.0175 ], [ 4982522.128399999812245, 2202306.764000000432134 ], [ 4982544.062199999578297, 2202345.29619999974966 ], [ 4982543.5795, 2202385.210100000724196 ], [ 4982533.722099999897182, 2202423.393799999728799 ], [ 4982520.328599999658763, 2202461.924000000581145 ], [ 4982506.596, 2202500.684399999678135 ], [ 4982495.720800000242889, 2202539.549499999731779 ], [ 4982490.521599999628961, 2202579.042899999767542 ], [ 4982490.8449, 2202622.462099999189377 ], [ 4982500.542999999597669, 2202662.506400000303984 ], [ 4982523.65639999974519, 2202690.975600000470877 ], [ 4982554.222199999727309, 2202713.895500000566244 ], [ 4982588.9391, 2202734.119899999350309 ], [ 4982626.3887, 2202751.971300000324845 ], [ 4982665.1234, 2202767.822100000455976 ], [ 4982703.704900000244379, 2202781.9846 ], [ 4982741.4342, 2202794.5504 ], [ 4982779.769000000320375, 2202805.096799999475479 ], [ 4982818.660299999639392, 2202814.113500000908971 ], [ 4982857.9095, 2202822.140599999576807 ], [ 4982897.347500000149012, 2202829.717599999159575 ], [ 4982936.765800000168383, 2202837.394600000232458 ], [ 4982975.995400000363588, 2202845.711400000378489 ], [ 4983014.8377, 2202855.217700000852346 ], [ 4983053.423600000329316, 2202866.472999999299645 ], [ 4983091.8723, 2202879.087300000712276 ], [ 4983130.232300000265241, 2202892.391100000590086 ], [ 4983168.5724, 2202905.724899999797344 ], [ 4983206.911399999633431, 2202918.439300000667572 ], [ 4983245.317699999548495, 2202929.864700000733137 ], [ 4983283.840300000272691, 2202939.34180000051856 ], [ 4983322.517699999734759, 2202946.220899999141693 ], [ 4983361.39850000012666, 2202949.832699999213219 ], [ 4983400.582000000402331, 2202949.727299999445677 ], [ 4983440.018899999558926, 2202946.394500000402331 ], [ 4983479.620799999684095, 2202940.503599999472499 ], [ 4983519.298999999649823, 2202932.744400000199676 ], [ 4983558.955, 2202923.7763 ], [ 4983598.519999999552965, 2202914.268999999389052 ], [ 4983637.895399999804795, 2202904.901900000870228 ], [ 4983676.972099999897182, 2202896.104699999094009 ], [ 4983715.271300000138581, 2202883.0132 ], [ 4983753.0565, 2202867.574799999594688 ], [ 4983790.927500000223517, 2202855.243300000205636 ], [ 4983829.5038, 2202851.13289999961853 ], [ 4983869.162899999879301, 2202854.253599999472499 ], [ 4983909.041500000283122, 2202862.359200000762939 ], [ 4983948.097400000318885, 2202873.91330000013113 ], [ 4983985.818199999630451, 2202887.328199999406934 ], [ 4984024.3898, 2202901.570599999278784 ], [ 4984062.714599999599159, 2202917.392200000584126 ], [ 4984099.056099999696016, 2202935.765100000426173 ], [ 4984131.667899999767542, 2202957.6418999992311 ], [ 4984158.604100000113249, 2202984.225299999117851 ], [ 4984177.990299999713898, 2203017.586899999529123 ], [ 4984192.5099, 2203055.543700000271201 ], [ 4984205.653900000266731, 2203095.061599999666214 ], [ 4984220.872999999672174, 2203133.126800000667572 ], [ 4984239.5937, 2203168.527799999341369 ], [ 4984258.7741, 2203203.937999999150634 ], [ 4984278.4238, 2203239.177300000563264 ], [ 4984298.721800000406802, 2203273.935900000855327 ], [ 4984319.8377, 2203307.903599999845028 ], [ 4984341.940399999730289, 2203340.760299999266863 ], [ 4984367.0274, 2203372.0929000005126 ], [ 4984404.587500000372529, 2203390.2336 ], [ 4984440.3915, 2203378.5055 ], [ 4984476.094399999827147, 2203355.787900000810623 ], [ 4984511.8498, 2203334.338899999856949 ], [ 4984547.572800000198185, 2203327.186699999496341 ], [ 4984583.082999999634922, 2203349.697300000116229 ], [ 4984619.4463, 2203363.804099999368191 ], [ 4984659.363900000229478, 2203345.5143 ], [ 4984695.417700000107288, 2203333.795700000599027 ], [ 4984720.4901, 2203357.5153 ], [ 4984740.3174, 2203396.830399999395013 ], [ 4984761.388299999758601, 2203433.385700000450015 ], [ 4984781.8953, 2203472.889399999752641 ], [ 4984803.902099999599159, 2203507.864399999380112 ], [ 4984831.18059999961406, 2203525.455399999395013 ], [ 4984866.855399999767542, 2203514.0472999997437 ], [ 4984906.455400000326335, 2203491.721799999475479 ], [ 4984947.8366, 2203476.0066 ], [ 4984994.389999999664724, 2203458.792999999597669 ], [ 4985027.555800000205636, 2203457.1206 ], [ 4985034.7971, 2203482.033399999141693 ], [ 4985027.79839999973774, 2203520.8607 ], [ 4985016.226599999703467, 2203566.170700000599027 ], [ 4985009.468999999575317, 2203610.881999999284744 ], [ 4985012.912700000219047, 2203650.708200000226498 ], [ 4985018.544700000435114, 2203690.810000000521541 ], [ 4985025.935499999672174, 2203731.068199999630451 ], [ 4985035.572999999858439, 2203770.772600000724196 ], [ 4985047.925599999725819, 2203809.2029 ], [ 4985063.451399999670684, 2203845.649000000208616 ], [ 4985082.489799999631941, 2203879.950300000607967 ], [ 4985104.237700000405312, 2203915.325200000777841 ], [ 4985128.30420000012964, 2203951.095499999821186 ], [ 4985154.486499999649823, 2203985.692700000479817 ], [ 4985180.265439034439623, 2204014.893641572911292 ], [ 4985175.612599999643862, 2203973.574799999594688 ] ] ] ] } }
]
}
