{
"type": "FeatureCollection",
"name": "Clase VI, limitaciones por clima  y suelo",
"crs": { "type": "name", "properties": { "name": "urn:ogc:def:crs:OGC:1.3:CRS84" } },
"features": [
{ "type": "Feature", "properties": { "OBJECTID": 479, "UCS_CP": "VIIcs1", "CLASE": "VII", "SUBCLASE": "cs", "GRUPO_MANEJO": "1", "UCS": "MHVd, MHVe, MHVep, MHVf", "PRINCIPALES_CARACTERÍSTICAS": "Se ubican en zonas muy frías y muy húmedas con temperaturas inferiores a 8°C y pendientes moderadas a fuertes; la zona de exploración por las raíces es superficial y muy superficial y la fertilidad baja", "PRINCIPALES_LIMITANTES": "Heladas, pendientes moderadas y fuertes, pedregosidad superﬁcial sectorizada, niveles muy altos de aluminio", "USO_ACTUAL": "Cultivos de papa, hortalizas, maíz; ganadería extensiva con pastos naturales y mejorados", "USOS_RECOMENDADOS": "Cultivos de papa en las zonas con pendientes <25%, bosques y desarrollo de vegetación natural en áreas de altitud superior a 3.400 m", "PRACTICAS_MANEJO": "Utilizar correctivos y fertilizantes en las áreas de menor pendiente; sembrar en fajas en contorno; en ganadería hacer rotación de potreros y utilizar bajas cargas para evitar erosión", "ÁREA_HA_1": 971.71823615221024, "Shape_Length": 20578.48840844848, "Shape_Area": 9717182.3615221027 }, "geometry": { "type": "MultiPolygon", "coordinates": [ [ [ [ -73.13396834566187, 5.845997592835646 ], [ -73.133943768096998, 5.845607727871069 ], [ -73.133840101996526, 5.845208540369207 ], [ -73.133737289433341, 5.844913382931378 ], [ -73.133677380869258, 5.8444768393648 ], [ -73.133667690604369, 5.844401038225961 ], [ -73.133545895902131, 5.844066844593157 ], [ -73.133415776207542, 5.843838339348324 ], [ -73.133324249919141, 5.84362900179879 ], [ -73.133271217341402, 5.843411081162687 ], [ -73.133252905246906, 5.843091770004764 ], [ -73.133279248828373, 5.842835445997134 ], [ -73.133365984857221, 5.842622477828444 ], [ -73.133529271071197, 5.842367753910505 ], [ -73.133708398062623, 5.842132338813332 ], [ -73.133874429846344, 5.841928940141948 ], [ -73.134038879921192, 5.841732616161188 ], [ -73.134075121111366, 5.841661901010736 ], [ -73.13415470434515, 5.841500036891875 ], [ -73.134185620635606, 5.841325508993099 ], [ -73.134202245771277, 5.841245323198034 ], [ -73.134204966450724, 5.841027494302006 ], [ -73.134206124425958, 5.840804945313096 ], [ -73.134188370963443, 5.8406208966934 ], [ -73.134142367999985, 5.840425004781573 ], [ -73.134088531058239, 5.840218090963666 ], [ -73.133999769442397, 5.839764978307703 ], [ -73.133926379101425, 5.839510844570646 ], [ -73.133789916812276, 5.839070557980631 ], [ -73.133694261854146, 5.83869182588259 ], [ -73.13366030179246, 5.83849594190759 ], [ -73.133642561379915, 5.838304816169602 ], [ -73.13363255434399, 5.838184480179605 ], [ -73.133510042087636, 5.837721871135567 ], [ -73.13342164290323, 5.837521190900069 ], [ -73.133329341027562, 5.837306350177758 ], [ -73.13318530407264, 5.836942206209065 ], [ -73.133143982841673, 5.836864874933759 ], [ -73.133103259300768, 5.836773670812179 ], [ -73.133042977620462, 5.836683826998216 ], [ -73.132881993039589, 5.836218793332964 ], [ -73.13281651292381, 5.835930861314111 ], [ -73.132806560120585, 5.835794239857036 ], [ -73.132795579340979, 5.835640162150597 ], [ -73.13274977269235, 5.835483506177799 ], [ -73.132634267053888, 5.835266612822323 ], [ -73.132463047053463, 5.83497413361254 ], [ -73.132370619607769, 5.83468284760817 ], [ -73.132357407665651, 5.834624611427589 ], [ -73.132386457294558, 5.834350400382393 ], [ -73.132461285745478, 5.834126841213648 ], [ -73.132615751780264, 5.833771683009457 ], [ -73.13274577779427, 5.833348252102345 ], [ -73.133159038958212, 5.832424461786563 ], [ -73.133228847048258, 5.832036716375654 ], [ -73.133424019621884, 5.831389133728373 ], [ -73.133748656718922, 5.830698572723497 ], [ -73.134267922868901, 5.829684380657739 ], [ -73.134636121993523, 5.828734727024147 ], [ -73.13496100740295, 5.827892986359419 ], [ -73.135523543026579, 5.8267924786094 ], [ -73.135891843766458, 5.825778032646111 ], [ -73.136043808276426, 5.825173569938485 ], [ -73.136517854207824, 5.824275805591319 ], [ -73.136743725636308, 5.822867453561093 ], [ -73.137436730849046, 5.821112045215084 ], [ -73.138555791015079, 5.820023719235926 ], [ -73.139557101976308, 5.819117962747142 ], [ -73.140308562122115, 5.818149211000938 ], [ -73.140684732090563, 5.817398868109363 ], [ -73.14109198938354, 5.816742448702455 ], [ -73.141110817358111, 5.816714459170671 ], [ -73.141171958762214, 5.817023686544023 ], [ -73.141388993367201, 5.81729656136095 ], [ -73.141667547653668, 5.817545940490144 ], [ -73.141979018604061, 5.817762372002852 ], [ -73.14230104489306, 5.817930088284277 ], [ -73.142633512181177, 5.818008038665998 ], [ -73.143006720379773, 5.817908751985001 ], [ -73.143301649642581, 5.817703728756814 ], [ -73.14352069873371, 5.817416482135851 ], [ -73.143724534156092, 5.817102627858263 ], [ -73.143964409100192, 5.816832322748152 ], [ -73.144255367425259, 5.816626207716829 ], [ -73.144557950562913, 5.81643240838688 ], [ -73.144869455091936, 5.816248568820273 ], [ -73.145187897177379, 5.816073421611135 ], [ -73.145511291199497, 5.815905785332923 ], [ -73.145837473450854, 5.815744212540215 ], [ -73.146164642610358, 5.815587342578427 ], [ -73.14649189246289, 5.815435716869285 ], [ -73.146824717403561, 5.815297028271011 ], [ -73.147162310712972, 5.815168656111565 ], [ -73.147502693159126, 5.81504616460239 ], [ -73.14784388462256, 5.814925212079766 ], [ -73.148183726931777, 5.814801363716875 ], [ -73.148520421559795, 5.814670185502653 ], [ -73.148853699684594, 5.814530051233676 ], [ -73.149191668345821, 5.814392816953532 ], [ -73.149531261577536, 5.814255495164745 ], [ -73.149867614357078, 5.814112108743717 ], [ -73.150195501146143, 5.813956865293863 ], [ -73.150509874321429, 5.813783605859215 ], [ -73.150805598722258, 5.813586627636163 ], [ -73.15108764205965, 5.813363947381266 ], [ -73.15136294922381, 5.813120369694186 ], [ -73.151626457782839, 5.812858598265358 ], [ -73.151872658064931, 5.812581517913439 ], [ -73.152096399164506, 5.812292014273333 ], [ -73.152292169565996, 5.811992699773556 ], [ -73.152456181959124, 5.811679588951257 ], [ -73.15258940483308, 5.811314799292792 ], [ -73.152677439039138, 5.810923262856593 ], [ -73.152702439868804, 5.810543196181015 ], [ -73.152647009894423, 5.810212544170522 ], [ -73.152472627003405, 5.809968405791807 ], [ -73.152160531781064, 5.809801164054933 ], [ -73.151785193016821, 5.809662299933475 ], [ -73.151423973609965, 5.809502300087328 ], [ -73.151147734036329, 5.809272187956762 ], [ -73.150939518124673, 5.808960814100424 ], [ -73.150757988362585, 5.808617386179631 ], [ -73.150568386994806, 5.808295825982598 ], [ -73.150336230114789, 5.808050235273424 ], [ -73.150037168267374, 5.807918367002824 ], [ -73.149690301730843, 5.807870144757733 ], [ -73.149315270056164, 5.807874678419345 ], [ -73.149059268512005, 5.807893159536111 ], [ -73.14921877578891, 5.807798923028847 ], [ -73.149939011924985, 5.806936221037033 ], [ -73.150600173125696, 5.806417705562651 ], [ -73.15089127087893, 5.806569869114035 ], [ -73.151200534219726, 5.806755823205102 ], [ -73.151501649050289, 5.806956409491825 ], [ -73.151797874261945, 5.807166210702315 ], [ -73.15209129332186, 5.80738061803678 ], [ -73.152384440679512, 5.807595296784045 ], [ -73.152679672663908, 5.807805547562072 ], [ -73.152979162281142, 5.808007125342445 ], [ -73.153285354404275, 5.808195333424994 ], [ -73.153600604510714, 5.808365743007835 ], [ -73.153931881047498, 5.808506884959109 ], [ -73.154278191290871, 5.808620293493306 ], [ -73.154633104407836, 5.808717442088076 ], [ -73.154989922035185, 5.808809529189968 ], [ -73.155341944930953, 5.8089077568818 ], [ -73.155682654629317, 5.809023415902113 ], [ -73.15600544141796, 5.809167797934128 ], [ -73.156305230157713, 5.809352828652697 ], [ -73.156584181846341, 5.809583034289314 ], [ -73.15684086697344, 5.809848644920816 ], [ -73.157073316274946, 5.810138990303123 ], [ -73.157279470042567, 5.810443216504273 ], [ -73.157460338020769, 5.810753007254288 ], [ -73.157633691449533, 5.811075624746723 ], [ -73.1577975465256, 5.811409979925759 ], [ -73.157945858730102, 5.81175271876047 ], [ -73.158072407237498, 5.812100213966215 ], [ -73.158171055292087, 5.812449019238357 ], [ -73.158235673273609, 5.812795418582549 ], [ -73.158256046821464, 5.813144548016653 ], [ -73.158215169358925, 5.813519617337294 ], [ -73.158118761802015, 5.813898121279129 ], [ -73.157975357666388, 5.814252588058952 ], [ -73.157793306227731, 5.814555725129697 ], [ -73.157558046804439, 5.814767998109622 ], [ -73.157215279036819, 5.81485984041971 ], [ -73.156821948977168, 5.81489861578468 ], [ -73.156445196849134, 5.814958936976287 ], [ -73.156097094785224, 5.81505502000348 ], [ -73.155750607405295, 5.815157615636592 ], [ -73.155406006548034, 5.815266179900826 ], [ -73.155030927944921, 5.815351006111142 ], [ -73.154719832730322, 5.815507094823729 ], [ -73.154536539796609, 5.815795400137658 ], [ -73.15439470541429, 5.816127083233033 ], [ -73.15427287806844, 5.816479866260638 ], [ -73.154149877387312, 5.816831743679973 ], [ -73.154002711636238, 5.817165858955254 ], [ -73.153831990478793, 5.817494509906522 ], [ -73.153687716387708, 5.817826460465392 ], [ -73.153630633118937, 5.818171664469983 ], [ -73.153716503981371, 5.818548026600037 ], [ -73.15379266186045, 5.818902220741769 ], [ -73.153577734213627, 5.81910150439516 ], [ -73.153221255236062, 5.81923889114957 ], [ -73.152900826168718, 5.819414853364502 ], [ -73.152564960761509, 5.819534371295955 ], [ -73.152204488855389, 5.819574191681542 ], [ -73.151833510191651, 5.819580812136414 ], [ -73.151466763158808, 5.819593498311481 ], [ -73.151118900271229, 5.819651782895254 ], [ -73.150793376944918, 5.819796000717867 ], [ -73.150494881075176, 5.820028959680351 ], [ -73.150266535862613, 5.82031583310629 ], [ -73.15011659236059, 5.820635023843817 ], [ -73.150002708641807, 5.820986010169399 ], [ -73.149927892273752, 5.821352250672891 ], [ -73.149896052606209, 5.821716844414746 ], [ -73.149908549679921, 5.822076178290739 ], [ -73.149961460356167, 5.822455920863074 ], [ -73.150059527342378, 5.82282615527625 ], [ -73.150208317082487, 5.823152079270182 ], [ -73.150423857142911, 5.823403610956934 ], [ -73.150754354429381, 5.823584265957883 ], [ -73.151137896245032, 5.823680832332488 ], [ -73.151494252851023, 5.823674730233716 ], [ -73.151817283412811, 5.823565048229637 ], [ -73.15213447180534, 5.823385373353742 ], [ -73.152447561944896, 5.823172419057736 ], [ -73.152758117167522, 5.822963167621124 ], [ -73.153063972231493, 5.822757343611654 ], [ -73.153362110858467, 5.822522121812353 ], [ -73.153661379636148, 5.822313213239446 ], [ -73.15397314677513, 5.822190761779964 ], [ -73.154384353592434, 5.822263591202073 ], [ -73.154654601424369, 5.822463674389782 ], [ -73.154501148655115, 5.822721468581089 ], [ -73.154225348247252, 5.82304352744743 ], [ -73.15412944247359, 5.823388395447434 ], [ -73.154055910471968, 5.823743428575769 ], [ -73.1539972644279, 5.824104994418156 ], [ -73.153955134452346, 5.824469301501852 ], [ -73.153931153469713, 5.824832914016159 ], [ -73.15392695069707, 5.825192038676401 ], [ -73.153976569329529, 5.8255441095679 ], [ -73.154087045285735, 5.825891940195328 ], [ -73.154205375217842, 5.826239965933666 ], [ -73.154277924059386, 5.826592887535694 ], [ -73.154276697046512, 5.826954367967323 ], [ -73.154262105319631, 5.827317906395631 ], [ -73.154277560770439, 5.827691892019026 ], [ -73.154377306752423, 5.828031567845916 ], [ -73.154620644274559, 5.828291191700175 ], [ -73.154908075558481, 5.828530182971859 ], [ -73.155224474977985, 5.82872229633643 ], [ -73.155555972481295, 5.828846260014064 ], [ -73.155902528605722, 5.828926487178693 ], [ -73.156260778759176, 5.828978795361827 ], [ -73.156625648912907, 5.829013483003329 ], [ -73.156991975472678, 5.829040396081791 ], [ -73.157354597656365, 5.82906965570663 ], [ -73.157731979272114, 5.829071993655787 ], [ -73.158126749163031, 5.829041359262137 ], [ -73.158512659716891, 5.829018304620727 ], [ -73.158863280041444, 5.829043563850724 ], [ -73.159152542581836, 5.829157781432714 ], [ -73.159381724067202, 5.829408067585958 ], [ -73.159557917081216, 5.829764053217017 ], [ -73.159670941387176, 5.830157367881811 ], [ -73.159710342911978, 5.830520000493017 ], [ -73.159602676720553, 5.830825068161259 ], [ -73.159285980302656, 5.831088743428419 ], [ -73.158942610628628, 5.831210963365145 ], [ -73.15859421983086, 5.831091313383312 ], [ -73.158238362795942, 5.830899951559062 ], [ -73.15794366523852, 5.830906790086219 ], [ -73.157745552239774, 5.8312555606233 ], [ -73.157750015183765, 5.831616778711399 ], [ -73.157839190799336, 5.831962314807037 ], [ -73.157960322358221, 5.832310977728964 ], [ -73.158084519028492, 5.832661723057308 ], [ -73.158182894401548, 5.833013423136985 ], [ -73.158229978647569, 5.833370823703119 ], [ -73.158227167184506, 5.833763766630215 ], [ -73.158139628903029, 5.834126190645443 ], [ -73.157930829645878, 5.834383894465222 ], [ -73.157654670206142, 5.834591396126783 ], [ -73.157340991024626, 5.834774513973487 ], [ -73.157002610741529, 5.834936162979901 ], [ -73.156652612013175, 5.835079709665838 ], [ -73.156303993312093, 5.835207976702394 ], [ -73.155963071638752, 5.835321791317426 ], [ -73.155616672983541, 5.835417331748187 ], [ -73.15526524140077, 5.835499029628427 ], [ -73.154910572970209, 5.83557177233894 ], [ -73.154554197172885, 5.835640441908509 ], [ -73.154197999556004, 5.835710016202024 ], [ -73.153843508674967, 5.835785379972353 ], [ -73.153492520588699, 5.835871507498149 ], [ -73.153143853730924, 5.835973462562766 ], [ -73.152796429926795, 5.836087715977911 ], [ -73.152449809230802, 5.836208208914411 ], [ -73.152103368288266, 5.836328973091015 ], [ -73.151756935625514, 5.836444131507418 ], [ -73.151409891506191, 5.836547624473943 ], [ -73.151061791548187, 5.836633485466668 ], [ -73.150712286294095, 5.836695834814451 ], [ -73.150360934981663, 5.836728615490038 ], [ -73.150006839223693, 5.836727756148919 ], [ -73.149650445775904, 5.836697689338426 ], [ -73.149292555154318, 5.836644471982059 ], [ -73.14893397061995, 5.836574346529324 ], [ -73.148575583906364, 5.836493280289832 ], [ -73.148218018361661, 5.836407333861289 ], [ -73.147862166639086, 5.836322655557366 ], [ -73.147509015672, 5.836243133893102 ], [ -73.147162880810455, 5.836124746898811 ], [ -73.146821385500189, 5.835985119110293 ], [ -73.146479122292149, 5.835873608651212 ], [ -73.146130504798535, 5.835836500313292 ], [ -73.145772119160384, 5.835864835505507 ], [ -73.145411761518815, 5.835938284161211 ], [ -73.145058846411231, 5.836042939481615 ], [ -73.144718000578749, 5.836164431658554 ], [ -73.144369467961113, 5.836293414452584 ], [ -73.144023169121965, 5.836436688170956 ], [ -73.143694798772486, 5.8366030462833 ], [ -73.143400141046158, 5.836801105797343 ], [ -73.143156783518663, 5.83704174668661 ], [ -73.142981669654333, 5.837343712623001 ], [ -73.142850544967345, 5.83768725374783 ], [ -73.142731854826664, 5.838044919590834 ], [ -73.142594408782571, 5.838389443275671 ], [ -73.142425312920892, 5.838709864019536 ], [ -73.142252062631826, 5.839030369024132 ], [ -73.142074570743304, 5.839349328408692 ], [ -73.141891218938369, 5.839663938897833 ], [ -73.141700473846171, 5.839971393572657 ], [ -73.141500808399883, 5.840268795915786 ], [ -73.141274170416523, 5.840552411912957 ], [ -73.140934783934711, 5.84071666983258 ], [ -73.140611199580604, 5.840610611930767 ], [ -73.140288504232487, 5.840405098997736 ], [ -73.139965337528764, 5.840211066778989 ], [ -73.139642495880906, 5.840146419870388 ], [ -73.139321643683246, 5.840350219676188 ], [ -73.138993063108686, 5.840477967091117 ], [ -73.138632290376577, 5.840312534052329 ], [ -73.138306449257968, 5.840206561337949 ], [ -73.138079924728842, 5.840421278647336 ], [ -73.137900834094168, 5.840777123019255 ], [ -73.137710498813348, 5.841107993986605 ], [ -73.137525265747612, 5.84146554656948 ], [ -73.137326468865666, 5.841782117814368 ], [ -73.1370799934503, 5.841941375969799 ], [ -73.136757577335544, 5.841838211558936 ], [ -73.136399665640354, 5.841636253445367 ], [ -73.136025672046316, 5.84149412199801 ], [ -73.135604934553527, 5.841338441100609 ], [ -73.135305213840226, 5.841323378151333 ], [ -73.135239828789679, 5.841548853959113 ], [ -73.135303159925542, 5.84190022458623 ], [ -73.135407832099375, 5.842310253475696 ], [ -73.135468997424837, 5.842714874608315 ], [ -73.135437963474743, 5.843075307951954 ], [ -73.13538715449738, 5.843438240226056 ], [ -73.13532045157416, 5.843802591735187 ], [ -73.135233443989847, 5.844161936248403 ], [ -73.135121897221396, 5.844509756083464 ], [ -73.134981669845416, 5.844839625839642 ], [ -73.134809694320367, 5.845150092808129 ], [ -73.134613235182712, 5.845470281638131 ], [ -73.134395823480943, 5.845794053771588 ], [ -73.134159288499191, 5.846107213873017 ], [ -73.133926386823759, 5.84637153704412 ], [ -73.13396834566187, 5.845997592835646 ] ] ] ] } }
]
}
